{"type":"FeatureCollection","features":[{"type":"Feature","properties":{"País":"Alemanha","Tipo de Representação":"Consulado-Geral","Cidade":"Porto Alegre","Cônsul":"Milan Andreas Simandl","Email":"info@porto-alegre.diplo.de","Website":"brasil.diplo.de/br-pt/representacoes/portoalegrept","Endereço":"Rua Professor Annes Dias, 112, 11° andar - Centro, 90020-090","Telefone":"(51) 3224-9255","Emergência":"(61) 3442-700"},"geometry":{"type":"Point","coordinates":[-51.223610903190014,-30.030350494325855]}},{"type":"Feature","properties":{"País":"Argentina","Tipo de Representação":"Consulado-Geral","Cidade":"Porto Alegre","Cônsul":"Jorge Enrique Perren","Email":"ccaleg@mrecic.gov.ar","Website":"caleg.cancilleria.gob.ar","Endereço":"Rua Coronel Bordini, 1033 - Moinhos de Vento, 90440-001","Telefone":"(51) 3321-1360","Emergência":"(51) 99959-0061"},"geometry":{"type":"Point","coordinates":[-51.1964359608619,-30.02681224068549]}},{"type":"Feature","properties":{"País":"Argentina","Tipo de Representação":"Consulado","Cidade":"Uruguaiana","Cônsul":"Ricardo Alberto Di Lelle","Email":"curug@mrecic.gov.ar","Website":"www.curug.gov.ar","Endereço":"Rua Treze de Maio, 1674 - Casa Villa Dolores, 97501-538","Telefone":"(55) 3412-4605 / 1925","Emergência":"(55) 99976-1025"},"geometry":{"type":"Point","coordinates":[-57.08992279224774,-29.754100908647114]}},{"type":"Feature","properties":{"País":"Chile","Tipo de Representação":"Consulado-Geral","Cidade":"Porto Alegre","Cônsul":"Aldo Giovanni Famolaro Beytía","Email":"portoalegre@minrel.gob.cl","Website":"chile.gob.cl/porto-alegre","Endereço":"Rua Padre Chagas, 79, Sala 602 - Moinhos de Vento, 90570-080","Telefone":"(51) 3346-3970 / 4189 / 3395-5836","Emergência":"(51) 98035-2813"},"geometry":{"type":"Point","coordinates":[-51.20420496086177,-30.025714649203298]}},{"type":"Feature","properties":{"País":"Espanha","Tipo de Representação":"Consulado-Geral","Cidade":"Porto Alegre","Cônsul":"Laura Corchón Letosa","Email":"cog.portoalegre@maec.es","Website":"www.exteriores.gob.es/Consulados/PORTOALEGRE","Endereço":"Av. Carlos Gomes, 222, Conj. 301 - Auxiliadora, 90480-000","Telefone":"(51) 3321-1901 / 1166 / 2319 / 3328-4932","Emergência":"(51) 99981-4646"},"geometry":{"type":"Point","coordinates":[-51.182845703190274,-30.02358161185369]}},{"type":"Feature","properties":{"País":"Estados Unidos","Tipo de Representação":"Consulado-Geral","Cidade":"Porto Alegre","Cônsul":"Derek Shane Christensen","Email":"portoalegreNIV@state.gov","Website":"br.usembassy.gov/embassy-consulates/u-s-consulate-porto-alegre","Endereço":"Av. Assis Brasil, 1889 - Passo d'Areia, 50070-060","Telefone":"(51) 3345-6000","Emergência":"N/A"},"geometry":{"type":"Point","coordinates":[-51.168584774354834,-30.01237618876597]}},{"type":"Feature","properties":{"País":"Itália","Tipo de Representação":"Consulado-Geral","Cidade":"Porto Alegre","Cônsul":"Valerio Caruso","Email":"segreteria.portoalegre@esteri.it","Website":"www.consportoalegre.esteri.it","Endereço":"Rua José de Alencar, 313 - Menino Deus, 90880-481","Telefone":"(51) 3230-8200 / 8203","Emergência":"(51) 98187-1503"},"geometry":{"type":"Point","coordinates":[-51.22868410318917,-30.059699100493244]}},{"type":"Feature","properties":{"País":"Paraguai","Tipo de Representação":"Consulado-Geral","Cidade":"Porto Alegre","Cônsul":"Jose Milciades Martinez Lezcano","Email":"consulparpoa@terra.com.br / portoalegreconsulpar@mre.gov.py","Website":"N/A","Endereço":"Rua Marquês do Pombal, 162 - Moinhos de Vento, 90540-000","Telefone":"(51) 3249-0530 / 3241-9576 / 3247-9600 / 3312-8638","Emergência":"(51) 99148-7881"},"geometry":{"type":"Point","coordinates":[-51.20274997435481,-30.01974004563856]}},{"type":"Feature","properties":{"País":"Portugal","Tipo de Representação":"Vice-Consulado","Cidade":"Porto Alegre","Cônsul":"Maria Filipa Carvalho da Silva Mendonça","Email":"portoalegre@mne.pt","Website":"www.consuladoportugalportoalegre.com","Endereço":"Rua Professor Annes Dias, 112, 10º andar - Centro Histórico, 90020-090","Telefone":"(51) 3061-5767","Emergência":"N/A"},"geometry":{"type":"Point","coordinates":[-51.223610903190014,-30.03045266888945]}},{"type":"Feature","properties":{"País":"Uruguai","Tipo de Representação":"Consulado-Geral","Cidade":"Porto Alegre","Cônsul":"Liliana Cristina Buonomo Zabaleta","Email":"cgportoalegre@mrree.gub.uy","Website":"N/A","Endereço":"Av. 24 de Outubro, 850, Sala 305, 90510-000","Telefone":"(51) 3325-6200 / 6201 / 6193 / 6194 / 6197 / 6198 / 9335-3060","Emergência":"N/A"},"geometry":{"type":"Point","coordinates":[-51.200366432026186,-30.023453190048148]}},{"type":"Feature","properties":{"País":"Uruguai","Tipo de Representação":"Consulado","Cidade":"Bagé","Cônsul":"Ana María Bombau Zappettini","Email":"cdbage@mrree.gub.uy","Website":"N/A","Endereço":"Av. Marechal Deodoro, 150 - Centro, 96400-400","Telefone":"(53) 3312-3689 / 99993-7485","Emergência":"N/A"},"geometry":{"type":"Point","coordinates":[-54.104213860819954,-31.32580444244875]}},{"type":"Feature","properties":{"País":"Uruguai","Tipo de Representação":"Consulado","Cidade":"Chuí","Cônsul":"Daniel Enrique Rótulo Decuadra","Email":"conschui@adinet.com.uy","Website":"N/A","Endereço":"Rua Venezuela, 311, 96255-000","Telefone":"(53) 3265-1151 / Celular: 092 790 867","Emergência":"N/A"},"geometry":{"type":"Point","coordinates":[-53.45364624539724,-33.68952346058846]}},{"type":"Feature","properties":{"País":"Uruguai","Tipo de Representação":"Consulado","Cidade":"Santana do Livramento","Cônsul":"Elisa Fabiola Pérez Balcón","Email":"cdlivramento@mrree.gub.uy","Website":"N/A","Endereço":"Av. Tamandaré, 2101, Salas 401/403 - Centro, 97573-531","Telefone":"(55) 3242-1416 / 99938-6269 / Celular: +59899608303","Emergência":"N/A"},"geometry":{"type":"Point","coordinates":[-55.53636771665525,-30.894821350385826]}},{"type":"Feature","properties":{"País":"Áustria","Tipo de Representação":"Consulado Honorário","Cidade":"Porto Alegre","Cônsul":"Kathrin Lerrer Rosenfield","Email":"consuladoaustriapoa@gmail.com","Website":"N/A","Endereço":"Rua Bororó, 583 - Vila Assunção, 91900-540","Telefone":"(51) 3391-3898","Emergência":"N/A"},"geometry":{"type":"Point","coordinates":[-51.25801702873683,-30.098192518169263]}},{"type":"Feature","properties":{"País":"Bélgica","Tipo de Representação":"Consulado Honorário","Cidade":"Porto Alegre","Cônsul":"Kátia Alcalde Vieira Pinheiro","Email":"consuladobelgicars@juchem.com.br","Website":"N/A","Endereço":"Av. Bastian, 396 - Menino Deus, 90130-021","Telefone":"(51) 3235-6505","Emergência":"N/A"},"geometry":{"type":"Point","coordinates":[-51.22406886086096,-30.05025022698804]}},{"type":"Feature","properties":{"País":"Dinamarca","Tipo de Representação":"Consulado Honorário","Cidade":"Porto Alegre","Cônsul":"Mark Nelz Cranston Woodhead","Email":"frawoo@umgate.dk","Website":"N/A","Endereço":"Rua Eudoro Berlink, 646, Conj. 903 - Auxiliadora, 90450-030","Telefone":"(51) 3481-5900 / 5902","Emergência":"N/A"},"geometry":{"type":"Point","coordinates":[-51.19110075901157,-30.02374505539239]}},{"type":"Feature","properties":{"País":"Espanha","Tipo de Representação":"Vice-Consulado Honorário","Cidade":"Bagé","Cônsul":"George Beckman Morgado","Email":"george.morgado@hotmail.com","Website":"N/A","Endereço":"Rua Bento Gonçalves, 285/1104, 96400-201","Telefone":"(53) 3242-8201","Emergência":"N/A"},"geometry":{"type":"Point","coordinates":[-54.102318046649124,-31.32776207803227]}},{"type":"Feature","properties":{"País":"Filipinas","Tipo de Representação":"Consulado Honorário","Cidade":"Porto Alegre","Cônsul":"Somchai Ansuj","Email":"N/A","Website":"N/A","Endereço":"Rua dos Andradas, 917/1001, 90020-005","Telefone":"(51) 98143-8308","Emergência":"N/A"},"geometry":{"type":"Point","coordinates":[-51.232445545518566,-30.030807357998658]}},{"type":"Feature","properties":{"País":"Finlândia","Tipo de Representação":"Consulado Honorário","Cidade":"Porto Alegre","Cônsul":"Geraldo Hertz","Email":"portoalegre@finconsul.fi","Website":"N/A","Endereço":"Rua Comendador Azevedo, 224, 2º andar - Floresta, 90220-150","Telefone":"(51) 3511-8458","Emergência":"N/A"},"geometry":{"type":"Point","coordinates":[-51.2117590999999,-30.019349651209602]}},{"type":"Feature","properties":{"País":"França","Tipo de Representação":"Consulado Honorário","Cidade":"Porto Alegre","Cônsul":"Roner Guerra Fabris","Email":"consulat.portoalegre@yahoo.fr","Website":"N/A","Endereço":"Alameda Eduardo Guimarães, 27, 91340-350","Telefone":"(51) 3222-6467 / 98226-0079","Emergência":"N/A"},"geometry":{"type":"Point","coordinates":[-51.211802018533284,-30.029553767457873]}},{"type":"Feature","properties":{"País":"Itália","Tipo de Representação":"Agência Consular Honorária","Cidade":"Erechim","Cônsul":"Gertrudes Maria Reolon Kalinoski Castilho","Email":"erechim.onorario@esteri.it","Website":"N/A","Endereço":"Rua Pedro Alvares Cabral, 1000 - Centro, 99700-252","Telefone":"(54) 3712-5399 / 99169-9772","Emergência":"N/A"},"geometry":{"type":"Point","coordinates":[-52.26746438791943,-27.642826604589747]}},{"type":"Feature","properties":{"País":"Itália","Tipo de Representação":"Consulado Honorário","Cidade":"Caxias do Sul","Cônsul":"Gelson Castellan","Email":"caxiasdosul.onorario@esteri.it","Website":"N/A","Endereço":"Rua Italo Victor Bersani, 1134, 95050-520","Telefone":"(54) 32927-4444 / 99285-3421","Emergência":"N/A"},"geometry":{"type":"Point","coordinates":[-51.17268123987981,-29.160437128067073]},"id":21},{"type":"Feature","properties":{"País":"Itália","Tipo de Representação":"Agência Consular Honorária","Cidade":"Bento Gonçalves","Cônsul":"Thais Rafaela da Cunha","Email":"bentogoncalves.onorario@esteri.it","Website":"N/A","Endereço":"Rua Henry Hugo Dreher 197 - Planalto, 95700-000","Telefone":"(54) 3455-3583","Emergência":"N/A"},"geometry":{"type":"Point","coordinates":[-51.50449933390281,-29.166051736179572]},"id":22},{"type":"Feature","properties":{"País":"Itália","Tipo de Representação":"Vice-Consulado Honorário","Cidade":"Rio Grande","Cônsul":"Vicente Touguinha Antonacci","Email":"riogrande.onorario@esteri.it","Website":"N/A","Endereço":"Rua Zalony, 160 – Conj. 1004, 96200-070","Telefone":"(53) 3231-5892  / 3232-2004","Emergência":"N/A"},"geometry":{"type":"Point","coordinates":[-52.09466121661806,-32.03218616194046]}},{"type":"Feature","properties":{"País":"Itália","Tipo de Representação":"Agência Consular Honorária","Cidade":"Passo Fundo","Cônsul":"Maristela Pretto Siviero","Email":"passofundo.onorario@esteri.it","Website":"N/A","Endereço":"Rua Moron, 1858 – Centro, 99010-034","Telefone":"(54) 99933-2781","Emergência":"N/A"},"geometry":{"type":"Point","coordinates":[-52.40911566091577,-28.263368429656534]}},{"type":"Feature","properties":{"País":"Itália","Tipo de Representação":"Agência Consular Honorária","Cidade":"Santa Maria","Cônsul":"José Zanella","Email":"santamaria.onorario@esteri.it","Website":"N/A","Endereço":"Rua do Acampamento, 255 – sala 01, 97015-001","Telefone":"(55) 98103-5176 / 99971-8042","Emergência":"N/A"},"geometry":{"type":"Point","coordinates":[-53.80595728970811,-29.68827518819039]}},{"type":"Feature","properties":{"País":"Japão","Tipo de Representação":"Escritório Consular","Cidade":"Porto Alegre","Cônsul":"Takashi Yokoyama","Email":"cjpoa@c1.mofa.go.jp","Website":"N/A","Endereço":"Av. João Obino, 467 - Petrópolis, 90470-150","Telefone":"(51) 3334-1299","Emergência":"N/A"},"geometry":{"type":"Point","coordinates":[-51.18035028969728,-30.03300854295024]}},{"type":"Feature","properties":{"País":"Luxemburgo","Tipo de Representação":"Consulado Honorário","Cidade":"Porto Alegre","Cônsul":"Tania Mara da Rocha Requia Bian","Email":"portoalegre@consul-hon.lu","Website":"N/A","Endereço":"Rua Barão do Triunfo, 576/201 - Menino Deus, 90130-100","Telefone":"(51) 3223-4963","Emergência":"N/A"},"geometry":{"type":"Point","coordinates":[-51.21770759687896,-30.04535982605535]}},{"type":"Feature","properties":{"País":"Noruega","Tipo de Representação":"Consulado Honorário","Cidade":"Rio Grande","Cônsul":"Antony Rover Baptista","Email":"tony@cranwood.com.br","Website":"N/A","Endereço":"Rua General Osório, 430, Sala 304, 96200-090","Telefone":"(53) 3232-0232","Emergência":"N/A"},"geometry":{"type":"Point","coordinates":[-52.0953952184682,-32.029691761630986]}},{"type":"Feature","properties":{"País":"Países Baixos","Tipo de Representação":"Consulado Honorário","Cidade":"Porto Alegre","Cônsul":"Ingrid de Kroes","Email":"portoalegre@nlconsulate.com","Website":"N/A","Endereço":"Av. Carlos Gomes, 222, 8º andar, 90480-000","Telefone":"(51) 3378-1144 / 98406-5517","Emergência":"N/A"},"geometry":{"type":"Point","coordinates":[-51.18288861853326,-30.023609479557]}},{"type":"Feature","properties":{"País":"Peru","Tipo de Representação":"Consulado Honorário","Cidade":"Porto Alegre","Cônsul":"Renato Muzi da Silva","Email":"rsrenatomsilva09@gmail.com","Website":"N/A","Endereço":"Av. Loureiro da Silva, 2001, Conj. 723 - Centro Histórico, 90050-240","Telefone":"(51) 99306-5018","Emergência":"N/A"},"geometry":{"type":"Point","coordinates":[-51.23964614551846,-30.036221349874392]}},{"type":"Feature","properties":{"País":"Polônia","Tipo de Representação":"Consulado Honorário","Cidade":"Porto Alegre","Cônsul":"Sérgio José Sechinski","Email":"auss@terra.com.br","Website":"N/A","Endereço":"Rua Domingos Rubbo, 475 ap. 602 - Cristo Redentor, 91040-000","Telefone":"(51) 98147-0940","Emergência":"N/A"},"geometry":{"type":"Point","coordinates":[-51.154871216683524,-30.00947320711937]}},{"type":"Feature","properties":{"País":"Reino Unido","Tipo de Representação":"Consulado Honorário","Cidade":"Porto Alegre","Cônsul":"Ricardo Sondermann","Email":"ricardo.sondes@gmail.com","Website":"N/A","Endereço":"Rua Dra. Aurora Nunes Wagner, 30, 90850-040","Telefone":"(51) 99918-0018","Emergência":"N/A"},"geometry":{"type":"Point","coordinates":[-51.230408503188954,-30.068594289673662]}},{"type":"Feature","properties":{"País":"Suíça","Tipo de Representação":"Consulado Honorário","Cidade":"Porto Alegre","Cônsul":"Gernot Häberlin","Email":"portoalegre@honrep.ch","Website":"N/A","Endereço":"Av. São Pedro, 1545 - São Geraldo, 90230-122","Telefone":"(51) 3222-2025 / 3343-1414 / 3343-4445","Emergência":"N/A"},"geometry":{"type":"Point","coordinates":[-51.19417082936017,-30.013417040355936]}},{"type":"Feature","properties":{"País":"Tunísia","Tipo de Representação":"Consulado Honorário","Cidade":"Porto Alegre","Cônsul":"Heinz Huyer","Email":"rsconsul-tunisia@uou.com.br","Website":"N/A","Endereço":"Rua dos Andradas 1121, Conjunto 1201 – Centro Histórico, 90020-015","Telefone":"(51) 32266677 / 999865885","Emergência":"N/A"},"geometry":{"type":"Point","coordinates":[-51.23044828969739,-30.030016802345326]}}]}