{"type":"FeatureCollection","features":[{"type":"Feature","properties":{"nome":"POA1","empresa":"Elea Data Centers","endereço":"Rua Engenheiro Afonso Cavalcanti","numero":100,"complemento":"","municipio":"Porto Alegre","bairro":"Bela Vista","cep":"90440-110","ddd":51,"telefone":"3229-3138","e-mail":"contato@eleadatacenters.com","site":"https://eleadatacenters.com/datacenters/poa1-porto-alegre/"},"geometry":{"type":"Point","coordinates":[-51.19106948771631,-30.034357963420003]}},{"type":"Feature","properties":{"nome":"POA2","empresa":"Elea Data Centers","endereço":"Rua Voluntários da Pátria","numero":1555,"complemento":"","municipio":"Porto Alegre","bairro":"Floresta","cep":"90030-002","ddd":21,"telefone":"3592-1221","e-mail":"contato@eleadatacenters.com","site":"https://eleadatacenters.com/datacenters/poa2-porto-alegre/"},"geometry":{"type":"Point","coordinates":[-51.214162688033205,-30.02002278824632]}},{"type":"Feature","properties":{"nome":"Quântico Data Center","empresa":"Quântico Data Center","endereço":"Rua Eng. Homero Carlos Simon","numero":1100,"complemento":"","municipio":"Canoas","bairro":"Guajuviras","cep":"92442-000","ddd":51,"telefone":"3311-1552","e-mail":"contato@quanticodc.com","site":"https://quanticodc.com/"},"geometry":{"type":"Point","coordinates":[-51.12823614829536,-29.903755106701997]}},{"type":"Feature","properties":{"nome":"Scala Data Centers SPOAPA01","empresa":"Scala Data Centers","endereço":"Av. Pernambuco","numero":1124,"complemento":"","municipio":"Porto Alegre","bairro":"Navegantes","cep":"90240-001","ddd":11,"telefone":"4040-6516","e-mail":"","site":"http://scaladatacenters.com/"},"geometry":{"type":"Point","coordinates":[-51.19805224385605,-30.002618815862633]}},{"type":"Feature","properties":{"nome":"Tecto V.OA","empresa":"Tecto VData Centers","endereço":"Rua Frederico Mentz","numero":1115,"complemento":"","municipio":"Porto Alegre","bairro":"Navegantes","cep":"90240-110","ddd":"","telefone":"","e-mail":"","site":"https://tecto.com/pt/data-centers/voa-pt/"},"geometry":{"type":"Point","coordinates":[-51.20283368278578,-29.989133729060867]}},{"type":"Feature","properties":{"nome":"Maila Networks DC1","empresa":"Maila Networks","endereço":"Rua Baronesa do Gravataí","numero":738,"complemento":"","municipio":"Porto Alegre","bairro":"Cidade Baixa","cep":"90160-070","ddd":51,"telefone":"3025-3940","e-mail":"","site":"https://www.maila.net.br/"},"geometry":{"type":"Point","coordinates":[-51.22574915909901,-30.04719953659771]},"id":5},{"type":"Feature","properties":{"nome":"Maila Networks DC2","empresa":"Maila Networks","endereço":"Rua Gomes de Freitas","numero":340,"complemento":"","municipio":"Porto Alegre","bairro":"Jardim Itu-Sabará","cep":"91380-000","ddd":51,"telefone":"3025-3960","e-mail":"","site":"https://cometa.net.br/"},"geometry":{"type":"Point","coordinates":[-51.1430205366238,-30.013090430311987]},"id":6},{"type":"Feature","properties":{"nome":"Telium Data Center - POA","empresa":"Telium Networks","endereço":"Av. Independência","numero":1299,"complemento":"","municipio":"Porto Alegre","bairro":"Independência","cep":"90035-073","ddd":51,"telefone":"3387-3700","e-mail":"","site":"https://www.telium.com.br/"},"geometry":{"type":"Point","coordinates":[-51.20758884546901,-30.029182479942836]}},{"type":"Feature","properties":{"nome":"Adentro DC Porto Alegre","empresa":"Adentro Solutions","endereço":"Av. Cristóvão Colombo","numero":2240,"complemento":"sala 601","municipio":"Porto Alegre","bairro":"Floresta","cep":"90560-001","ddd":51,"telefone":"3103-9603","e-mail":"","site":"https://www.adentro.com.br/"},"geometry":{"type":"Point","coordinates":[-51.198537003141396,-30.01748961972198]}},{"type":"Feature","properties":{"nome":"KingHost Data Center","empresa":"KingHost","endereço":"Rua Mostarteiro","numero":777,"complemento":"sala 601","municipio":"Porto Alegre","bairro":"Rio Branco","cep":"90430-001","ddd":51,"telefone":"4003-5464","e-mail":"","site":"https://king.host/"},"geometry":{"type":"Point","coordinates":[-51.199159690349724,-30.02863104533296]},"id":9},{"type":"Feature","properties":{"nome":"Ávato - Data Center","empresa":"Ávato Tecnologia","endereço":"Rua Dr. Bozano","numero":1293,"complemento":"3o andar","municipio":"Santa Maria","bairro":"Centro","cep":"97015-004","ddd":55,"telefone":"3220-0300","e-mail":"","site":"https://www.avato.com.br/"},"geometry":{"type":"Point","coordinates":[-53.808114237712964,-29.686484043355946]},"id":10}]}