{"type":"FeatureCollection","features":[{"type":"Feature","id":"vw_dutovias.fid-5c8cc48d_196d0758c6a_8bb","geometry":{"type":"LineString","coordinates":[[-51.16061304,-29.87531843,0],[-51.16070646,-29.87699768,0],[-51.16077709,-29.8782672,0],[-51.16084957,-29.87884894,0],[-51.15998364,-29.88093177,0],[-51.15897275,-29.883583,0],[-51.15709973,-29.88622469,0],[-51.15647032,-29.88903995,0],[-51.15567306,-29.89232823,0],[-51.15495209,-29.89512823,0],[-51.15447526,-29.89715957,0],[-51.1531897,-29.89925957,0],[-51.153678,-29.90135766,0],[-51.15368183,-29.90415765,0],[-51.15384588,-29.90674593,0],[-51.15409385,-29.91017535,0],[-51.1549026,-29.9154778,0],[-51.15531462,-29.92023474,0],[-51.15555877,-29.92317397,0],[-51.15612719,-29.92695244,0],[-51.15598606,-29.93005379,0],[-51.1558373,-29.93246469,0],[-51.15562749,-29.93351755,0],[-51.15584112,-29.93438349,0],[-51.156482,-29.9345685,0],[-51.15790489,-29.93462762,0],[-51.15918283,-29.93543061,0],[-51.16060955,-29.93685349,0],[-51.16153654,-29.93963632,0],[-51.16233384,-29.94415484,0],[-51.16240632,-29.9444028,0],[-51.15678722,-29.94379056,0],[-51.15479594,-29.94372953,0],[-51.1540864,-29.94379248,0],[-51.15373163,-29.94435133,0],[-51.15352183,-29.94534125,0],[-51.15315943,-29.94661727,0],[-51.15287715,-29.94742218,0],[-51.15174036,-29.94835297,0],[-51.15544448,-29.95224586,0],[-51.16114372,-29.95892349,0],[-51.16442059,-29.96238342,0],[-51.16677048,-29.96485534,0],[-51.16739991,-29.96522346,0],[-51.16834597,-29.96553054,0],[-51.1692882,-29.96581664,0],[-51.16992908,-29.96599974,0],[-51.17162663,-29.96601881,0],[-51.17370566,-29.96611989,0],[-51.17432746,-29.96610272,0],[-51.1755558,-29.96601879,0],[-51.17699396,-29.96605884,0],[-51.17876781,-29.96650897,0],[-51.17999615,-29.96683512,0]]},"geometry_name":"geom","properties":{"id_dutovias":394,"Nome_Duto":"ORNIT 6","Data_Construcao":null,"Data_Operacao":null,"Origem":"REFAP REPSOL SA","Destino":"TERMINAL DE NITEROI - TENIT","Municipio_Origem":"CANOAS","Municipio_Destino":"CANOAS","Extensao":"13,435","Diametro_Pol_M":"6","Diametro_Pol_X":"6","Categoria":"Dutos Instalados","Classificacao":"Oleoduto","Tipo_Uso":"TRANSPORTE","Tipo_Material":"RÍGIDO TERRESTRE","Etapa":null,"Operador":"DT/REGIONAL SUL","Tracado":"BR E&P","dt_ini":"2013-01-01Z","dt_fim":"2029-10-30Z"}},{"type":"Feature","id":"vw_dutovias.fid-5c8cc48d_196d0758c6a_8bc","geometry":{"type":"LineString","coordinates":[[-49.40115139,-28.60533555,0],[-49.40159324,-28.60547048,0],[-49.40284793,-28.60557707,0],[-49.4051577,-28.60532022,0],[-49.4063587,-28.60545657,0],[-49.40672472,-28.6055827,0],[-49.40724687,-28.60551641,0],[-49.40799919,-28.6051131,0],[-49.41301906,-28.60409596,0],[-49.4140166,-28.60399812,0],[-49.41419812,-28.60406622,0],[-49.41510987,-28.6047174,0],[-49.41808079,-28.60670489,0],[-49.41861449,-28.60709533,0],[-49.41886623,-28.60725928,0],[-49.4191667,-28.60729553,0],[-49.4195213,-28.6072965,0],[-49.42012172,-28.60755993,0],[-49.42079339,-28.6077003,0],[-49.42277163,-28.60803023,0],[-49.43024575,-28.61207009,0],[-49.43133814,-28.61312033,0],[-49.43156975,-28.61484887,0],[-49.43128513,-28.61554601,0],[-49.43130349,-28.61600527,0],[-49.43151386,-28.6164256,0],[-49.43272038,-28.61746679,0],[-49.43882844,-28.61980018,0],[-49.44506397,-28.62305814,0],[-49.44766975,-28.62575323,0],[-49.45302708,-28.62925049,0],[-49.45596655,-28.63172413,0],[-49.45811759,-28.63222197,0],[-49.45862483,-28.6321594,0],[-49.45976701,-28.63156284,0],[-49.46027936,-28.63147692,0],[-49.46381711,-28.63197778,0],[-49.46486738,-28.63232137,0],[-49.46542529,-28.63286685,0],[-49.46710856,-28.63360267,0],[-49.46786975,-28.6343857,0],[-49.47919523,-28.63986379,0],[-49.48298507,-28.64053957,0],[-49.48531267,-28.64207686,0],[-49.4863332,-28.64227527,0],[-49.48931012,-28.6428546,0],[-49.48975364,-28.64312362,0],[-49.49117499,-28.64502533,0],[-49.49263098,-28.64610019,0],[-49.49397906,-28.64709535,0],[-49.49592857,-28.64816774,0],[-49.50250845,-28.6512183,0],[-49.50477098,-28.65180309,0],[-49.50761053,-28.65084708,0],[-49.51063014,-28.65140782,0],[-49.51438163,-28.65427825,0],[-49.52613134,-28.66295009,0],[-49.53029702,-28.66625293,0],[-49.5326375,-28.66775579,0],[-49.53533135,-28.66941716,0],[-49.53617989,-28.66967883,0],[-49.5448761,-28.67602238,0],[-49.54906689,-28.67946968,0],[-49.55394831,-28.68374286,0],[-49.55406159,-28.68388223,0],[-49.55442779,-28.68433347,0],[-49.55502055,-28.68485545,0],[-49.55634382,-28.68595267,0],[-49.55661496,-28.68617045,0],[-49.5588112,-28.68804626,0],[-49.56103789,-28.68945795,0],[-49.56310617,-28.6907884,0],[-49.56731375,-28.6935026,0],[-49.57183865,-28.69642127,0],[-49.58419379,-28.70402398,0],[-49.58875193,-28.70970778,0],[-49.59947061,-28.71651968,0],[-49.60709411,-28.72136336,0],[-49.61964931,-28.72933872,0],[-49.62048104,-28.72968478,0],[-49.62114274,-28.73052413,0],[-49.62478157,-28.73267708,0],[-49.62581185,-28.73349247,0],[-49.62643771,-28.73404328,0],[-49.62671161,-28.73428418,0],[-49.62702625,-28.73473719,0],[-49.62753284,-28.73513172,0],[-49.62821079,-28.73533026,0],[-49.62835194,-28.73534283,0],[-49.62862799,-28.73536769,0],[-49.62912653,-28.735329,0],[-49.63267518,-28.73451243,0],[-49.63406694,-28.73442739,0],[-49.63736051,-28.73458683,0],[-49.6384358,-28.73485226,0],[-49.63999039,-28.73523634,0],[-49.64102935,-28.73539797,0],[-49.64203124,-28.73520445,0],[-49.64329872,-28.73491047,0],[-49.64480297,-28.7345339,0],[-49.64558099,-28.7345263,0],[-49.64673309,-28.73505178,0],[-49.64775947,-28.73607904,0],[-49.64778525,-28.73610465,0],[-49.64945063,-28.73685884,0],[-49.65257518,-28.73781048,0],[-49.65440229,-28.73825027,0],[-49.65610906,-28.73826456,0],[-49.65754767,-28.73799872,0],[-49.65865987,-28.73779303,0],[-49.66100189,-28.73751674,0],[-49.66221482,-28.73733235,0],[-49.66391691,-28.73713731,0],[-49.66461452,-28.73700343,0],[-49.66696626,-28.73673896,0],[-49.66755231,-28.7367414,0],[-49.66767592,-28.73674229,0],[-49.67026725,-28.73675308,0],[-49.67292225,-28.73685666,0],[-49.67441686,-28.73684341,0],[-49.67558683,-28.73689725,0],[-49.67787479,-28.73722721,0],[-49.68050229,-28.73760598,0],[-49.68258499,-28.73777679,0],[-49.68598881,-28.73821993,0],[-49.68803611,-28.73822584,0],[-49.68895232,-28.73822834,0],[-49.69181939,-28.73769687,0],[-49.69309289,-28.73762242,0],[-49.69798846,-28.73733611,0],[-49.69818083,-28.73737871,0],[-49.69827271,-28.73739892,0],[-49.69973928,-28.73809864,0],[-49.70134262,-28.73939071,0],[-49.70548077,-28.74357603,0],[-49.70661456,-28.7447227,0],[-49.71014398,-28.74878681,0],[-49.71199068,-28.75053486,0],[-49.7160999,-28.75442477,0],[-49.71785389,-28.75553306,0],[-49.71964233,-28.75641844,0],[-49.72054311,-28.75686494,0],[-49.72087605,-28.7569388,0],[-49.72637685,-28.75665372,0],[-49.72787115,-28.75714891,0],[-49.72862135,-28.75774168,0],[-49.7289972,-28.75828832,0],[-49.73010407,-28.75990885,0],[-49.73285011,-28.76209043,0],[-49.73428236,-28.76295955,0],[-49.73659019,-28.76413516,0],[-49.73813327,-28.7649207,0],[-49.74189871,-28.76649005,0],[-49.74308688,-28.76709771,0],[-49.74332269,-28.76721288,0],[-49.7445402,-28.76780739,0],[-49.74466946,-28.76786416,0],[-49.74565524,-28.76830399,0],[-49.74639475,-28.7686367,0],[-49.74848268,-28.76953836,0],[-49.74989049,-28.77024241,0],[-49.75052576,-28.77054354,0],[-49.75158257,-28.77090583,0],[-49.75228765,-28.77124184,0],[-49.75346393,-28.77182454,0],[-49.75423531,-28.77209767,0],[-49.75474844,-28.77241458,0],[-49.75479696,-28.77244854,0],[-49.75741803,-28.77373582,0],[-49.75915958,-28.77454151,0],[-49.76036164,-28.77498523,0],[-49.76178315,-28.77618439,0],[-49.76322026,-28.77734853,0],[-49.76545883,-28.77916174,0],[-49.76663629,-28.78024853,0],[-49.76856662,-28.781514,0],[-49.76958828,-28.7823013,0],[-49.77072562,-28.783084,0],[-49.77096372,-28.78322019,0],[-49.77356973,-28.78470835,0],[-49.77548466,-28.7860547,0],[-49.7755307,-28.78608695,0],[-49.77801284,-28.78767675,0],[-49.77895428,-28.78837229,0],[-49.77927155,-28.78847967,0],[-49.78092343,-28.78904068,0],[-49.78227919,-28.78931297,0],[-49.78347147,-28.79013035,0],[-49.78417975,-28.79067209,0],[-49.78453141,-28.79094865,0],[-49.78488246,-28.79109275,0],[-49.78603122,-28.79117737,0],[-49.78765749,-28.79207077,0],[-49.78821164,-28.79240174,0],[-49.78928172,-28.79304085,0],[-49.79056165,-28.79408921,0],[-49.79171113,-28.79489024,0],[-49.79325722,-28.79689268,0],[-49.79422522,-28.79864739,0],[-49.79489674,-28.79897423,0],[-49.79578049,-28.79940407,0],[-49.7965991,-28.79980251,0],[-49.79917097,-28.80043894,0],[-49.79962649,-28.80046381,0],[-49.80218298,-28.80060355,0],[-49.80241831,-28.80061644,0],[-49.80261051,-28.80068475,0],[-49.80422748,-28.80185499,0],[-49.80459364,-28.80211988,0],[-49.8084798,-28.80425836,0],[-49.80952951,-28.80500985,0],[-49.81225647,-28.80630883,0],[-49.81293001,-28.80659286,0],[-49.81547101,-28.80766392,0],[-49.81735875,-28.80907675,0],[-49.82067603,-28.81232145,0],[-49.82106155,-28.81269862,0],[-49.82389166,-28.81430762,0],[-49.82748632,-28.81595674,0],[-49.82928027,-28.81696821,0],[-49.83052606,-28.81767047,0],[-49.83183582,-28.81833722,0],[-49.83404263,-28.82003637,0],[-49.83717851,-28.82141641,0],[-49.83792627,-28.8217173,0],[-49.84035949,-28.82269561,0],[-49.84278876,-28.82389279,0],[-49.84428491,-28.82450605,0],[-49.84456289,-28.82453829,0],[-49.84737136,-28.82412356,0],[-49.84930979,-28.82383667,0],[-49.85218726,-28.82211411,0],[-49.85527973,-28.82027977,0],[-49.85619485,-28.81979714,0],[-49.85761648,-28.81904784,0],[-49.85922392,-28.81891491,0],[-49.85937029,-28.81890236,0],[-49.86372341,-28.81785524,0],[-49.86569068,-28.81676502,0],[-49.86776419,-28.8156155,0],[-49.8693526,-28.81500018,0],[-49.8723632,-28.81383371,0],[-49.87492854,-28.81289883,0],[-49.87637115,-28.81237286,0],[-49.87957023,-28.81096401,0],[-49.87994806,-28.81079748,0],[-49.88395919,-28.80866912,0],[-49.88414093,-28.80857275,0],[-49.88561323,-28.80786774,0],[-49.89147654,-28.80728719,0],[-49.89381746,-28.80661082,0],[-49.89542795,-28.80614551,0],[-49.89844255,-28.80495385,0],[-49.90124523,-28.80222693,0],[-49.90151828,-28.80191562,0],[-49.90188853,-28.80149345,0],[-49.90190075,-28.80147985,0],[-49.90191,-28.80146878,0],[-49.90204882,-28.80131062,0],[-49.90453389,-28.80027414,0],[-49.90480098,-28.80024555,0],[-49.90870387,-28.80061075,0],[-49.91175217,-28.8004493,0],[-49.91643277,-28.80020102,0],[-49.92004091,-28.79980445,0],[-49.92039474,-28.79966447,0],[-49.92097853,-28.79921246,0],[-49.92153373,-28.7987814,0],[-49.92204188,-28.79838702,0],[-49.92226754,-28.798293,0],[-49.92269955,-28.79823214,0],[-49.9240444,-28.79821718,0],[-49.92442302,-28.7983587,0],[-49.92714505,-28.80009338,0],[-49.92906716,-28.80192124,0],[-49.92989891,-28.80223957,0],[-49.93303012,-28.80344088,0],[-49.93462821,-28.80395261,0],[-49.934913,-28.80415417,0],[-49.935725,-28.80518712,0],[-49.93717465,-28.80652088,0],[-49.93740271,-28.80661838,0],[-49.9383285,-28.80684478,0],[-49.93922534,-28.80706418,0],[-49.94120607,-28.80739838,0],[-49.94482672,-28.80654767,0],[-49.95109857,-28.80264037,0],[-49.951484,-28.80237421,0],[-49.95243195,-28.80166228,0],[-49.95275079,-28.80133682,0],[-49.95320981,-28.80108898,0],[-49.95349312,-28.80092698,0],[-49.95482393,-28.79999014,0],[-49.95546699,-28.79951218,0],[-49.95566382,-28.79926974,0],[-49.95596181,-28.79890273,0],[-49.95610075,-28.79873136,0],[-49.95805808,-28.79787801,0],[-49.95932645,-28.79756027,0],[-49.96029692,-28.79722334,0],[-49.96129497,-28.79705276,0],[-49.96182816,-28.79714185,0],[-49.96227145,-28.7974226,0],[-49.96251614,-28.79789927,0],[-49.96317783,-28.80017175,0],[-49.96321113,-28.80028619,0],[-49.9637742,-28.80154005,0],[-49.9640101,-28.80249438,0],[-49.96392657,-28.80335996,0],[-49.96405568,-28.80461177,0],[-49.96445772,-28.8062145,0],[-49.964775,-28.80772702,0],[-49.96488561,-28.80900396,0],[-49.96490552,-28.80923712,0],[-49.96521757,-28.8113076,0],[-49.96547459,-28.81180841,0],[-49.96565692,-28.81224438,0],[-49.96589951,-28.81277126,0],[-49.96661243,-28.81421881,0],[-49.96703147,-28.81497604,0],[-49.96820647,-28.81668777,0],[-49.96860001,-28.81728538,0],[-49.96914743,-28.81811644,0],[-49.96989763,-28.81902455,0],[-49.97025491,-28.81940103,0],[-49.97068063,-28.82030252,0],[-49.97115778,-28.8242569,0],[-49.97134317,-28.82575529,0],[-49.97135106,-28.82581644,0],[-49.97168804,-28.82855219,0],[-49.97178929,-28.82903439,0],[-49.97180866,-28.82946513,0],[-49.97190282,-28.82991072,0],[-49.97235562,-28.83047782,0],[-49.97244488,-28.83070728,0],[-49.97270276,-28.83137103,0],[-49.97319979,-28.83264994,0],[-49.97348714,-28.83329402,0],[-49.97365523,-28.8338539,0],[-49.97391886,-28.83439806,0],[-49.97403064,-28.83462873,0],[-49.97418056,-28.8352051,0],[-49.974563,-28.83634831,0],[-49.97614079,-28.84094819,0],[-49.9763892,-28.84161922,0],[-49.97634305,-28.84309621,0],[-49.97633853,-28.8432188,0],[-49.97621426,-28.84707605,0],[-49.97604831,-28.85057731,0],[-49.97659082,-28.85203319,0],[-49.97718382,-28.85362653,0],[-49.97785795,-28.8552969,0],[-49.97988115,-28.8599284,0],[-49.98007538,-28.86051915,0],[-49.9810311,-28.86342721,0],[-49.98071845,-28.86860811,0],[-49.98093727,-28.8693835,0],[-49.98186695,-28.87267643,0],[-49.98317775,-28.8765564,0],[-49.98324634,-28.87676487,0],[-49.98332603,-28.8769698,0],[-49.98342505,-28.87725622,0],[-49.98349588,-28.87747035,0],[-49.98357596,-28.877708,0],[-49.98370903,-28.87808229,0],[-49.98386891,-28.87852497,0],[-49.98402897,-28.87900008,0],[-49.98422606,-28.87947513,0],[-49.98434629,-28.87987941,0],[-49.98454377,-28.88038699,0],[-49.98472211,-28.88084589,0],[-49.98487118,-28.88132429,0],[-49.98503823,-28.88175393,0],[-49.98520546,-28.8822161,0],[-49.98539157,-28.88269442,0],[-49.98552897,-28.88311102,0],[-49.98627526,-28.88509338,0],[-49.98658121,-28.88591181,0],[-49.98684141,-28.88663986,0],[-49.98757915,-28.88852285,0],[-49.98851535,-28.89086561,0],[-49.98912771,-28.89232975,0],[-49.98969396,-28.89368357,0],[-49.99018529,-28.89496922,0],[-49.99025094,-28.89514507,0],[-49.99097031,-28.89690839,0],[-49.99343025,-28.90253202,0],[-49.99433023,-28.90335231,0],[-49.9957714,-28.90466587,0],[-49.99642862,-28.90680576,0],[-49.99898522,-28.90994759,0],[-49.9994894,-28.91096723,0],[-49.99979868,-28.91157751,0],[-50.00001522,-28.91213403,0],[-50.00035997,-28.9129244,0],[-50.00064143,-28.91367937,0],[-50.00118227,-28.9152894,0],[-50.00190156,-28.91758556,0],[-50.00181126,-28.91923103,0],[-50.00190151,-28.91964343,0],[-50.00270642,-28.92331265,0],[-50.0029263,-28.92412491,0],[-50.00330077,-28.9255078,0],[-50.00433976,-28.92782641,0],[-50.00451388,-28.92832914,0],[-50.00544322,-28.93101105,0],[-50.00611823,-28.93360396,0],[-50.00653294,-28.93630576,0],[-50.00658809,-28.93666548,0],[-50.00683867,-28.93700829,0],[-50.00686169,-28.93702356,0],[-50.01016089,-28.93922453,0],[-50.01502128,-28.94248367,0],[-50.01514876,-28.94256907,0],[-50.01790532,-28.94383869,0],[-50.02083896,-28.94687582,0],[-50.02182399,-28.94887268,0],[-50.02185182,-28.94892846,0],[-50.02205594,-28.94934223,0],[-50.02367701,-28.95262791,0],[-50.02594154,-28.95595392,0],[-50.02661197,-28.95681386,0],[-50.02694658,-28.95724345,0],[-50.02817595,-28.95881991,0],[-50.02896292,-28.95921768,0],[-50.03055622,-28.96126143,0],[-50.03123924,-28.9620919,0],[-50.03241025,-28.96346548,0],[-50.03278933,-28.96393602,0],[-50.03332238,-28.96459779,0],[-50.03443582,-28.96544254,0],[-50.03474673,-28.96576337,0],[-50.03673919,-28.96682923,0],[-50.03678185,-28.96685193,0],[-50.03777466,-28.96753677,0],[-50.03968243,-28.96887096,0],[-50.04066088,-28.96962645,0],[-50.04151604,-28.9702855,0],[-50.04356104,-28.97157394,0],[-50.04731877,-28.97414586,0],[-50.04827898,-28.97486003,0],[-50.04870356,-28.9752167,0],[-50.04876217,-28.97526573,0],[-50.04931121,-28.97572697,0],[-50.05007347,-28.97624232,0],[-50.05081888,-28.97774098,0],[-50.05224343,-28.97915069,0],[-50.05362897,-28.98124183,0],[-50.05447398,-28.98199674,0],[-50.05444801,-28.98210204,0],[-50.05451603,-28.9821627,0],[-50.0548916,-28.98230832,0],[-50.05495666,-28.98233348,0],[-50.05567623,-28.98261245,0],[-50.05716129,-28.98317028,0],[-50.05917453,-28.98342438,0],[-50.06026603,-28.98414584,0],[-50.06125118,-28.98530319,0],[-50.06195731,-28.98612672,0],[-50.06272791,-28.9870836,0],[-50.06293544,-28.98717771,0],[-50.06336633,-28.98737323,0],[-50.06397045,-28.98768194,0],[-50.06545155,-28.98838501,0],[-50.06626047,-28.98877359,0],[-50.0664611,-28.9888738,0],[-50.06707728,-28.98918177,0],[-50.06780013,-28.98950908,0],[-50.06874551,-28.98988171,0],[-50.0701278,-28.99046822,0],[-50.07158506,-28.99111944,0],[-50.07205463,-28.99132219,0],[-50.07301173,-28.99173578,0],[-50.07575897,-28.99357078,0],[-50.07665588,-28.99430095,0],[-50.08170897,-28.99841371,0],[-50.08227556,-28.99864773,0],[-50.08514954,-28.99983492,0],[-50.085323,-29.0000493,0],[-50.08545645,-29.00111162,0],[-50.08550337,-29.0012505,0],[-50.08560303,-29.00136594,0],[-50.08574255,-29.00144308,0],[-50.09091623,-29.00327291,0],[-50.09148909,-29.00347536,0],[-50.09279093,-29.00382809,0],[-50.09659209,-29.00641599,0],[-50.1012103,-29.00955994,0],[-50.10361399,-29.01356259,0],[-50.10934839,-29.01939746,0],[-50.11116351,-29.02201598,0],[-50.11375335,-29.0233331,0],[-50.11685762,-29.02433782,0],[-50.12830485,-29.03007676,0],[-50.1316433,-29.03259497,0],[-50.13719186,-29.03425714,0],[-50.14131594,-29.03529422,0],[-50.14558965,-29.03808738,0],[-50.14784933,-29.04085969,0],[-50.16284602,-29.05254342,0],[-50.16968474,-29.05589506,0],[-50.17100099,-29.05640125,0],[-50.17349251,-29.05735937,0],[-50.17991205,-29.05981474,0],[-50.19161777,-29.06654244,0],[-50.19533947,-29.07032064,0],[-50.19841811,-29.07255181,0],[-50.20053019,-29.07502217,0],[-50.20350008,-29.07754612,0],[-50.21197111,-29.08115242,0],[-50.22046561,-29.08340079,0],[-50.22573387,-29.08624739,0],[-50.22982618,-29.08757059,0],[-50.2320562,-29.08882344,0],[-50.24216759,-29.09450281,0],[-50.24330117,-29.09513939,0],[-50.24474665,-29.0952255,0],[-50.25130556,-29.0973469,0],[-50.25543536,-29.10032403,0],[-50.27493998,-29.10984515,0],[-50.27711163,-29.11050306,0],[-50.2885215,-29.11695303,0],[-50.30492606,-29.12776329,0],[-50.310711,-29.13107707,0],[-50.32880894,-29.13478946,0],[-50.34288549,-29.13756324,0],[-50.34784562,-29.14118912,0],[-50.36381522,-29.14520945,0],[-50.36862153,-29.14741052,0],[-50.3786007,-29.15197962,0],[-50.39205067,-29.15846759,0],[-50.3932321,-29.15918559,0],[-50.39919753,-29.16255908,0],[-50.40433062,-29.16656668,0],[-50.40939883,-29.16837695,0],[-50.41279965,-29.17005205,0],[-50.41426253,-29.17077254,0],[-50.41731905,-29.17247771,0],[-50.42381317,-29.17387519,0],[-50.43079159,-29.17729621,0],[-50.43305441,-29.17864545,0],[-50.43932346,-29.18138365,0],[-50.44261234,-29.1824148,0],[-50.44984152,-29.18569337,0],[-50.4535822,-29.18914035,0],[-50.45653606,-29.19228901,0],[-50.46437014,-29.20063791,0],[-50.46858888,-29.21367728,0],[-50.46950481,-29.21545391,0],[-50.47117893,-29.21870108,0],[-50.47545598,-29.22357528,0],[-50.47932042,-29.23077887,0],[-50.47936174,-29.23098455,0],[-50.47873177,-29.23699746,0],[-50.47827355,-29.24166238,0],[-50.4795645,-29.24688822,0],[-50.48029301,-29.25596586,0],[-50.48669977,-29.2726439,0],[-50.49014963,-29.27878475,0],[-50.49150937,-29.28499277,0],[-50.49250636,-29.28727336,0],[-50.49243577,-29.29198284,0],[-50.4924983,-29.29218348,0],[-50.50069803,-29.30401674,0],[-50.50480491,-29.30747218,0],[-50.51021104,-29.31458382,0],[-50.51219684,-29.31880009,0],[-50.51461575,-29.32823671,0],[-50.51517385,-29.34100571,0],[-50.51904746,-29.34931455,0],[-50.52182586,-29.35463458,0],[-50.52607917,-29.36207003,0],[-50.52752381,-29.36555579,0],[-50.53364281,-29.37125358,0],[-50.53683441,-29.37568331,0],[-50.54101038,-29.37997697,0],[-50.54360387,-29.38250604,0],[-50.54585934,-29.38439556,0],[-50.54596551,-29.38457758,0],[-50.54688549,-29.39046407,0],[-50.54701156,-29.39062182,0],[-50.55628279,-29.39490385,0],[-50.56243614,-29.40245732,0],[-50.56661991,-29.40979043,0],[-50.57007063,-29.4120918,0],[-50.57725325,-29.41675261,0],[-50.58035597,-29.42248568,0],[-50.58681669,-29.42831667,0],[-50.59074679,-29.42971605,0],[-50.59770622,-29.43144394,0],[-50.60236495,-29.43840678,0],[-50.60233315,-29.43861238,0],[-50.60204377,-29.44019724,0],[-50.60263776,-29.44313996,0],[-50.60268264,-29.45148941,0],[-50.60125671,-29.45283825,0],[-50.59941165,-29.45354733,0],[-50.59877971,-29.45411528,0],[-50.59867564,-29.45437807,0],[-50.59813607,-29.4557403,0],[-50.59768588,-29.4564205,0],[-50.59740831,-29.45740688,0],[-50.59721868,-29.45919932,0],[-50.59766721,-29.46104186,0],[-50.59779352,-29.46156111,0],[-50.59863288,-29.46428261,0],[-50.59909308,-29.46658594,0],[-50.59966312,-29.46854379,0],[-50.60042133,-29.46988334,0],[-50.60200501,-29.47210095,0],[-50.60362644,-29.47369568,0],[-50.60383185,-29.47378068,0],[-50.60590871,-29.47384542,0],[-50.6064208,-29.47401007,0],[-50.60658874,-29.47414559,0],[-50.60703596,-29.47499406,0],[-50.61230732,-29.4789376,0],[-50.61486041,-29.4812009,0],[-50.61565454,-29.48220698,0],[-50.61752036,-29.48317619,0],[-50.61953137,-29.48336236,0],[-50.62146151,-29.48420417,0],[-50.62205858,-29.48490308,0],[-50.62225132,-29.48502587,0],[-50.62337181,-29.48539265,0],[-50.62431139,-29.48598252,0],[-50.62453508,-29.48605579,0],[-50.62514579,-29.48640386,0],[-50.62662702,-29.48678679,0],[-50.62777095,-29.48720983,0],[-50.63442398,-29.48798312,0],[-50.63750851,-29.48933538,0],[-50.63768482,-29.48947558,0],[-50.64079356,-29.49381451,0],[-50.6416794,-29.49473758,0],[-50.64174941,-29.49493224,0],[-50.64206176,-29.49579894,0],[-50.64209966,-29.49663186,0],[-50.6412356,-29.49810074,0],[-50.64122249,-29.498254,0],[-50.64123717,-29.49837479,0],[-50.64129796,-29.4984771,0],[-50.64236524,-29.49906178,0],[-50.64476972,-29.49938136,0],[-50.65241233,-29.50274231,0],[-50.65416151,-29.50351161,0],[-50.6552769,-29.50380086,0],[-50.65607017,-29.50411283,0],[-50.65958978,-29.5049514,0],[-50.66624829,-29.50897988,0],[-50.66796724,-29.51263771,0],[-50.66812811,-29.51287041,0],[-50.66827086,-29.51307671,0],[-50.66985576,-29.51416016,0],[-50.67211727,-29.51722552,0],[-50.67218092,-29.5174246,0],[-50.67200598,-29.52300435,0],[-50.67207679,-29.52319911,0],[-50.67254642,-29.52374744,0],[-50.67286923,-29.52393921,0],[-50.67351043,-29.52409198,0],[-50.6807627,-29.52316302,0],[-50.68089556,-29.52316759,0],[-50.68101767,-29.52321408,0],[-50.681112,-29.52329594,0],[-50.68360385,-29.52645268,0],[-50.68378888,-29.52658232,0],[-50.68877868,-29.52834241,0],[-50.68891984,-29.52848861,0],[-50.6893957,-29.53039714,0],[-50.68963278,-29.53063686,0],[-50.69110965,-29.53112303,0],[-50.69129065,-29.53125318,0],[-50.69182624,-29.53200816,0],[-50.69389983,-29.53349362,0],[-50.69557413,-29.53454567,0],[-50.69897939,-29.53575505,0],[-50.7030253,-29.53840513,0],[-50.70471928,-29.53946676,0],[-50.70552427,-29.53989467,0],[-50.70690838,-29.54095228,0],[-50.70849098,-29.5416858,0],[-50.7115939,-29.5445226,0],[-50.71391297,-29.54744779,0],[-50.71676373,-29.54964341,0],[-50.71692458,-29.54986246,0],[-50.71737246,-29.55116061,0],[-50.71766627,-29.55364832,0],[-50.72092575,-29.55900136,0],[-50.72579249,-29.56285848,0],[-50.72909401,-29.56875358,0],[-50.73016259,-29.56970272,0],[-50.73255191,-29.57112087,0],[-50.73653549,-29.57431819,0],[-50.73940559,-29.57498932,0],[-50.74393616,-29.57641444,0],[-50.74412429,-29.5765392,0],[-50.74457515,-29.57708334,0],[-50.74488678,-29.57786681,0],[-50.74493146,-29.57815707,0],[-50.74507798,-29.57847183,0],[-50.74706089,-29.58153999,0],[-50.75064498,-29.58442491,0],[-50.75277707,-29.58564984,0],[-50.75326293,-29.58601254,0],[-50.75451319,-29.58664991,0],[-50.75997482,-29.5877457,0],[-50.76053883,-29.5881586,0],[-50.76165551,-29.59045413,0],[-50.76173614,-29.59055164,0],[-50.76185709,-29.59060886,0],[-50.76199486,-29.59061456,0],[-50.76605879,-29.58998049,0],[-50.76629649,-29.59000025,0],[-50.76941798,-29.59105114,0],[-50.77871114,-29.59797754,0],[-50.77951263,-29.5984411,0],[-50.77965535,-29.59860348,0],[-50.77989836,-29.59923955,0],[-50.78017773,-29.59995953,0],[-50.78164827,-29.60166964,0],[-50.78213921,-29.60193302,0],[-50.78356874,-29.60215288,0],[-50.78380173,-29.60212355,0],[-50.78452424,-29.60181049,0],[-50.78475757,-29.60178008,0],[-50.78509393,-29.60182887,0],[-50.78700707,-29.60194501,0],[-50.7952342,-29.60342646,0],[-50.7962839,-29.60352984,0],[-50.79855015,-29.60351615,0],[-50.80163082,-29.60282188,0],[-50.80412045,-29.60245082,0],[-50.80775166,-29.60190154,0],[-50.81336897,-29.6028668,0],[-50.81539013,-29.60331613,0],[-50.81763133,-29.60424,0],[-50.82324696,-29.60712181,0],[-50.82710104,-29.60833054,0],[-50.82852315,-29.60823226,0],[-50.82922699,-29.60846631,0],[-50.83186604,-29.60833754,0],[-50.83497846,-29.6079191,0],[-50.83681645,-29.60767208,0],[-50.83695232,-29.60768685,0],[-50.83705914,-29.60776187,0],[-50.83904288,-29.61020595,0],[-50.83992791,-29.61153149,0],[-50.8419923,-29.61366257,0],[-50.843104,-29.61512392,0],[-50.84677906,-29.61711887,0],[-50.84704737,-29.61725577,0],[-50.84824168,-29.6179218,0],[-50.84913848,-29.61787331,0],[-50.84974842,-29.61784911,0],[-50.85002749,-29.61802195,0],[-50.85039867,-29.61826505,0],[-50.85148415,-29.61897427,0],[-50.85240641,-29.6198443,0],[-50.85422686,-29.62065169,0],[-50.85564766,-29.62095244,0],[-50.85690645,-29.621225,0],[-50.859426,-29.62197377,0],[-50.86078407,-29.62215318,0],[-50.86097012,-29.6222059,0],[-50.86146709,-29.62233114,0],[-50.86252651,-29.62261534,0],[-50.86526206,-29.6232622,0],[-50.86660669,-29.62358637,0],[-50.86803103,-29.62393187,0],[-50.86943244,-29.62427439,0],[-50.87023079,-29.62422416,0],[-50.87101955,-29.62424698,0],[-50.87346718,-29.62434367,0],[-50.87639146,-29.62433461,0],[-50.87853318,-29.62473817,0],[-50.87908409,-29.62516489,0],[-50.87934215,-29.62536477,0],[-50.87939194,-29.62542507,0],[-50.87950479,-29.62563768,0],[-50.8815013,-29.62788099,0],[-50.88214431,-29.62886327,0],[-50.88441865,-29.63017285,0],[-50.88535259,-29.6306519,0],[-50.88658432,-29.63141729,0],[-50.88669017,-29.63148206,0],[-50.88779747,-29.63216249,0],[-50.8888337,-29.63338067,0],[-50.88969887,-29.63441113,0],[-50.89351941,-29.63802956,0],[-50.89402144,-29.6386562,0],[-50.89583538,-29.63993229,0],[-50.89622758,-29.6403079,0],[-50.89634709,-29.64047999,0],[-50.89637525,-29.64061263,0],[-50.89647317,-29.64103049,0],[-50.89662213,-29.64119921,0],[-50.89677922,-29.64137894,0],[-50.89865545,-29.64230101,0],[-50.90026491,-29.64313027,0],[-50.90099646,-29.64349749,0],[-50.90111565,-29.64349829,0],[-50.90274483,-29.64366162,0],[-50.90347194,-29.64372906,0],[-50.9056185,-29.64367672,0],[-50.90646295,-29.6436434,0],[-50.90748003,-29.64360706,0],[-50.90858366,-29.64356804,0],[-50.90898933,-29.64355568,0],[-50.90961837,-29.64405315,0],[-50.91069038,-29.64489016,0],[-50.91114553,-29.6451858,0],[-50.91164141,-29.64550104,0],[-50.91261105,-29.64609487,0],[-50.91332628,-29.64678526,0],[-50.91411444,-29.64706051,0],[-50.91581311,-29.6476371,0],[-50.91659636,-29.64791754,0],[-50.91782976,-29.64869631,0],[-50.91867983,-29.64925945,0],[-50.91932961,-29.6496555,0],[-50.91964161,-29.6498324,0],[-50.92070547,-29.65044612,0],[-50.92155213,-29.65093886,0],[-50.92206932,-29.65111276,0],[-50.92225217,-29.65116784,0],[-50.92250461,-29.65124816,0],[-50.92340183,-29.65153995,0],[-50.92386087,-29.65168635,0],[-50.92432564,-29.65183451,0],[-50.92508859,-29.65207756,0],[-50.92579606,-29.65230048,0],[-50.92738809,-29.65342264,0],[-50.92760942,-29.65433304,0],[-50.92772309,-29.65518883,0],[-50.92826476,-29.65662814,0],[-50.92841989,-29.65688189,0],[-50.92885169,-29.65758855,0],[-50.92934652,-29.65839781,0],[-50.92956602,-29.658757,0],[-50.92978565,-29.65898934,0],[-50.93021792,-29.65944675,0],[-50.93079967,-29.66004491,0],[-50.93133546,-29.6606118,0],[-50.93192284,-29.66106558,0],[-50.93264823,-29.66163667,0],[-50.93282979,-29.66179268,0],[-50.9330294,-29.66189898,0],[-50.93443923,-29.66267186,0],[-50.93482221,-29.66286488,0],[-50.93562886,-29.66330595,0],[-50.93639154,-29.66373203,0],[-50.93681254,-29.6638776,0],[-50.93716281,-29.66401117,0],[-50.93826086,-29.66468135,0],[-50.93833209,-29.66472095,0],[-50.93880921,-29.66495192,0],[-50.93967547,-29.66538064,0],[-50.9399162,-29.66548427,0],[-50.94028924,-29.66566812,0],[-50.94101539,-29.66602906,0],[-50.9414738,-29.66625688,0],[-50.94338374,-29.66716777,0],[-50.94433441,-29.66759841,0],[-50.94558262,-29.66817507,0],[-50.94641709,-29.66856705,0],[-50.94745033,-29.6690395,0],[-50.94826685,-29.66937255,0],[-50.94836428,-29.66955454,0],[-50.94852081,-29.66976729,0],[-50.95199899,-29.67449362,0],[-50.95290284,-29.67635577,0],[-50.95276614,-29.67794718,0],[-50.95299765,-29.67837106,0],[-50.95676457,-29.68064871,0],[-50.95987091,-29.68539094,0],[-50.96707488,-29.69679157,0],[-50.96807297,-29.69838372,0],[-50.96832639,-29.70303807,0],[-50.96852834,-29.70352399,0],[-50.97115579,-29.70654745,0],[-50.97213531,-29.70722755,0],[-50.97269814,-29.70761832,0],[-50.97437755,-29.71016516,0],[-50.97466177,-29.71040856,0],[-50.97932461,-29.71264912,0],[-50.98484979,-29.71552126,0],[-50.98520222,-29.71570453,0],[-50.98545988,-29.71596299,0],[-50.98655242,-29.7182286,0],[-50.98857806,-29.72288276,0],[-50.99142559,-29.72747658,0],[-50.99386521,-29.72878261,0],[-50.99422679,-29.72918116,0],[-50.99572054,-29.73312459,0],[-50.99703347,-29.73941078,0],[-50.99733926,-29.73983691,0],[-51.00340546,-29.74371219,0],[-51.0036696,-29.74414232,0],[-51.00378153,-29.7462852,0],[-51.00403454,-29.74672816,0],[-51.00593402,-29.74809957,0],[-51.01030079,-29.74990621,0],[-51.01039926,-29.75001012,0],[-51.01393555,-29.75374381,0],[-51.01408847,-29.75406224,0],[-51.01421568,-29.75514304,0],[-51.01448165,-29.75638537,0],[-51.01465457,-29.75669939,0],[-51.01788781,-29.75997061,0],[-51.02401894,-29.77111745,0],[-51.02645993,-29.7728868,0],[-51.02879569,-29.77466384,0],[-51.03098727,-29.77608512,0],[-51.03208052,-29.77684067,0],[-51.0325735,-29.77717852,0],[-51.03383784,-29.77816995,0],[-51.03489618,-29.77897402,0],[-51.03620221,-29.78010393,0],[-51.03674105,-29.7815998,0],[-51.03755028,-29.78311848,0],[-51.03835466,-29.78372112,0],[-51.04029341,-29.7851668,0],[-51.0414127,-29.7865157,0],[-51.04288739,-29.78813912,0],[-51.04499184,-29.7905903,0],[-51.04530713,-29.79095804,0],[-51.04695858,-29.79228083,0],[-51.04870795,-29.79344513,0],[-51.05018413,-29.79543723,0],[-51.05062428,-29.79603249,0],[-51.05083365,-29.7961713,0],[-51.05163313,-29.7971267,0],[-51.0517708,-29.79723741,0],[-51.0519555,-29.79738848,0],[-51.05212,-29.79747715,0],[-51.05258567,-29.79771074,0],[-51.05295156,-29.79774486,0],[-51.05336807,-29.79773241,0],[-51.05412908,-29.79779191,0],[-51.05435563,-29.7978075,0],[-51.05478724,-29.79794332,0],[-51.05545499,-29.79796892,0],[-51.0560039,-29.79800358,0],[-51.05719132,-29.79799871,0],[-51.0577322,-29.79807421,0],[-51.05835657,-29.79820674,0],[-51.05934482,-29.79825143,0],[-51.05960711,-29.79827249,0],[-51.06060867,-29.79844215,0],[-51.06106088,-29.79863484,0],[-51.06131773,-29.79874621,0],[-51.06176508,-29.79893897,0],[-51.06178786,-29.79894885,0],[-51.06284172,-29.79930834,0],[-51.06284388,-29.79930884,0],[-51.06336858,-29.79943201,0],[-51.06483796,-29.80011101,0],[-51.06513691,-29.80024097,0],[-51.06563458,-29.80120501,0],[-51.0659134,-29.80146101,0],[-51.06720615,-29.80299946,0],[-51.06787638,-29.80361473,0],[-51.06800594,-29.8037632,0],[-51.06808486,-29.80416477,0],[-51.06787981,-29.80453229,0],[-51.06729073,-29.8049754,0],[-51.06686283,-29.8060115,0],[-51.06688747,-29.80638293,0],[-51.06723036,-29.80698626,0],[-51.06752274,-29.80749814,0],[-51.06769331,-29.80780492,0],[-51.06781494,-29.80823593,0],[-51.06808691,-29.80891522,0],[-51.06780104,-29.81021474,0],[-51.06720573,-29.81165642,0],[-51.06679344,-29.8122595,0],[-51.06648953,-29.81311985,0],[-51.06632489,-29.81337836,0],[-51.06601178,-29.81386635,0],[-51.06576328,-29.81467852,0],[-51.06557092,-29.81604456,0],[-51.06528449,-29.81661428,0],[-51.06421837,-29.8168553,0],[-51.06259179,-29.81731466,0],[-51.0618551,-29.81767081,0],[-51.0612664,-29.81821739,0],[-51.06068364,-29.81909856,0],[-51.06062105,-29.81975519,0],[-51.06059097,-29.82007195,0],[-51.06069959,-29.82223657,0],[-51.06111463,-29.82658247,0],[-51.06198376,-29.82782767,0],[-51.06250791,-29.82840637,0],[-51.06335901,-29.82934573,0],[-51.06365523,-29.82980884,0],[-51.06358738,-29.83122542,0],[-51.0636563,-29.83205329,0],[-51.06503862,-29.83330761,0],[-51.06514902,-29.83340788,0],[-51.0681196,-29.83517695,0],[-51.06902221,-29.83616015,0],[-51.07004902,-29.83782449,0],[-51.07044002,-29.84040295,0],[-51.07124357,-29.84241636,0],[-51.07168841,-29.84353122,0],[-51.07265032,-29.84594039,0],[-51.07364223,-29.84837302,0],[-51.07570391,-29.85080742,0],[-51.0763275,-29.85147519,0],[-51.07754559,-29.85278013,0],[-51.07784102,-29.8535196,0],[-51.07814862,-29.85428936,0],[-51.07879854,-29.85579575,0],[-51.07992827,-29.85924066,0],[-51.08024221,-29.85972279,0],[-51.08165165,-29.8618918,0],[-51.08382286,-29.86367283,0],[-51.08635249,-29.86639716,0],[-51.08667331,-29.86671192,0],[-51.08956607,-29.86954743,0],[-51.0925796,-29.87246514,0],[-51.09992706,-29.87259817,0],[-51.10272507,-29.8726487,0],[-51.10533547,-29.87269579,0],[-51.11339105,-29.87284079,0],[-51.11761631,-29.8729089,0],[-51.13203611,-29.87314109,0],[-51.13273936,-29.87315248,0],[-51.13546779,-29.87319677,0],[-51.1384331,-29.87324485,0],[-51.14642491,-29.87336473,0],[-51.14662026,-29.87365311,0],[-51.1469142,-29.87723429,0]]},"geometry_name":"geom","properties":{"id_dutovias":399,"Nome_Duto":"GASBOL (SIDERÓPOLIS-PORTO ALEGRE)","Data_Construcao":null,"Data_Operacao":"2000","Origem":"CRICIÚMA","Destino":"PORTO ALEGRE","Municipio_Origem":"SIDERÓPOLIS (SC)","Municipio_Destino":"PORTO ALEGRE (RS)","Extensao":"250","Diametro_Pol_M":"16","Diametro_Pol_X":"16","Categoria":"Dutos Instalados","Classificacao":"Gasoduto","Tipo_Uso":"TRANSPORTE","Tipo_Material":"RÍGIDO TERRESTRE","Etapa":null,"Operador":"TRANSPETRO","Tracado":"BR E&P","dt_ini":"2013-01-01Z","dt_fim":"2029-10-30Z"}},{"type":"Feature","id":"vw_dutovias.fid-5c8cc48d_196d0758c6a_8bd","geometry":{"type":"LineString","coordinates":[[-51.38449956,-29.89638428,0],[-51.38340856,-29.89816003,0],[-51.38012026,-29.89694315,0],[-51.37832353,-29.8981734,0],[-51.37746139,-29.89756305,0],[-51.37306681,-29.8950549,0],[-51.37149896,-29.89403637,0],[-51.36649404,-29.89500533,0],[-51.36213,-29.89658273,0],[-51.36095887,-29.89672197,0],[-51.35813597,-29.89570918,0],[-51.3563316,-29.89489474,0],[-51.35599208,-29.89336314,0],[-51.35593486,-29.89295306,0],[-51.35572505,-29.89272608,0],[-51.35554194,-29.89261355,0],[-51.35507273,-29.89261355,0],[-51.35418008,-29.89261546,0],[-51.35127326,-29.89255635,0],[-51.34839314,-29.89240377,0],[-51.34645525,-29.89229506,0],[-51.34616152,-29.89149779,0],[-51.34587541,-29.8912937,0],[-51.34527268,-29.89108962,0],[-51.34438004,-29.89081877,0],[-51.34301818,-29.89047927,0],[-51.34115659,-29.89007301,0],[-51.33992443,-29.8897583,0],[-51.33857783,-29.8895733,0],[-51.33619362,-29.88894006,0],[-51.33343938,-29.8881943,0],[-51.33205082,-29.88783381,0],[-51.33163119,-29.8869221,0],[-51.33115435,-29.88607905,0],[-51.33089876,-29.88584445,0],[-51.33042573,-29.88561747,0],[-51.33003281,-29.88548205,0],[-51.3296666,-29.88527797,0],[-51.32940338,-29.88502811,0],[-51.32911346,-29.88468669,0],[-51.32866714,-29.8842995,0],[-51.3281407,-29.88404964,0],[-51.32735487,-29.8837788,0],[-51.32667203,-29.88352894,0],[-51.32625622,-29.88343929,0],[-51.3256802,-29.88353275,0],[-51.32505077,-29.88355565,0],[-51.32313959,-29.8836987,0],[-51.32107201,-29.8839543,0],[-51.31847799,-29.88420989,0],[-51.30790737,-29.88190394,0],[-51.30342887,-29.88093312,0],[-51.30135747,-29.88025411,0],[-51.29878634,-29.87927946,0],[-51.29815691,-29.87909826,0],[-51.2977411,-29.87900862,0],[-51.2968065,-29.87885031,0],[-51.29261411,-29.87838112,0],[-51.28991709,-29.87797677,0],[-51.28640754,-29.87814273,0],[-51.28504568,-29.87780513,0],[-51.28365712,-29.87746563,0],[-51.28305439,-29.8771471,0],[-51.28216174,-29.87664738,0],[-51.2816086,-29.87632885,0],[-51.28078462,-29.87624874,0],[-51.27208703,-29.87482971,0],[-51.27096169,-29.87494606,0],[-51.26972953,-29.87510819,0],[-51.26873771,-29.87522454,0],[-51.26784506,-29.87547823,0],[-51.26712026,-29.87574716,0],[-51.25623687,-29.88055565,0],[-51.25537093,-29.88084557,0],[-51.25440198,-29.88065102,0],[-51.25304775,-29.88034394,0],[-51.25236873,-29.88009408,0],[-51.25114802,-29.88076929,0],[-51.24963358,-29.88164287,0],[-51.2477987,-29.8820396,0],[-51.24499487,-29.88223989,0],[-51.24273655,-29.88249739,0],[-51.2416341,-29.88203009,0],[-51.23840682,-29.87997779,0],[-51.23562588,-29.87940178,0],[-51.23176537,-29.87795983,0],[-51.22848089,-29.87814105,0],[-51.22769506,-29.87800944,0],[-51.22308687,-29.87827077,0],[-51.21907756,-29.87363782,0],[-51.21852824,-29.87345472,0],[-51.21572442,-29.8736035,0],[-51.21383231,-29.87369125,0],[-51.20931567,-29.87393922,0],[-51.20539032,-29.87416812,0],[-51.20054943,-29.87445043,0],[-51.19516685,-29.87480712,0],[-51.19209981,-29.87501122,0],[-51.18473357,-29.87545566,0],[-51.1817619,-29.87565976,0],[-51.18118588,-29.87592107,0],[-51.17442618,-29.87626251,0],[-51.17059238,-29.87646662,0],[-51.16409208,-29.87681378,0],[-51.16070646,-29.87699768,0],[-51.15569587,-29.87726967,0],[-51.15500158,-29.87664597,0],[-51.15489095,-29.87563126,0]]},"geometry_name":"geom","properties":{"id_dutovias":471,"Nome_Duto":"ORSUL 6","Data_Construcao":null,"Data_Operacao":null,"Origem":"POLO PETROQUIMICO DO SUL","Destino":"REFAP REPSOL SA","Municipio_Origem":"TRIUNFO","Municipio_Destino":"CANOAS","Extensao":"24,01","Diametro_Pol_M":"6","Diametro_Pol_X":"6","Categoria":"Dutos Instalados","Classificacao":"Oleoduto","Tipo_Uso":"TRANSPORTE","Tipo_Material":"RÍGIDO TERRESTRE","Etapa":null,"Operador":"DT/REGIONAL SUL","Tracado":"BR E&P","dt_ini":"2013-01-01Z","dt_fim":"2029-10-30Z"}},{"type":"Feature","id":"vw_dutovias.fid-5c8cc48d_196d0758c6a_8be","geometry":{"type":"LineString","coordinates":[[-50.18990952,-29.98259993,0],[-50.19787526,-29.98628634,0],[-50.20278863,-29.98638551,0],[-50.21123825,-29.98660673,0],[-50.21616688,-29.9866048,0],[-50.22277018,-29.98667725,0],[-50.22996476,-29.98631101,0],[-50.2391964,-29.98571016,0],[-50.24645964,-29.98517607,0],[-50.2564733,-29.98454279,0],[-50.26153163,-29.98410027,0],[-50.26998888,-29.983858,0],[-50.2801475,-29.98316368,0],[-50.28811265,-29.98279935,0],[-50.29213338,-29.98251323,0],[-50.29626854,-29.98227098,0],[-50.29902278,-29.98210884,0],[-50.31183263,-29.98128482,0],[-50.31489204,-29.98106546,0],[-50.31624627,-29.98103875,0],[-50.31849315,-29.98111694,0],[-50.32076291,-29.98120849,0],[-50.32376511,-29.98206869,0],[-50.33083,-29.98460354,0],[-50.33657499,-29.98663676,0],[-50.3449636,-29.98995552,0],[-50.34881648,-29.99149474,0],[-50.35097944,-29.99215849,0],[-50.3549582,-29.99336583,0],[-50.35773533,-29.99456746,0],[-50.36037513,-29.99588734,0],[-50.36306834,-29.99686198,0],[-50.36493756,-29.99724345,0],[-50.36813049,-29.99782899,0],[-50.37101061,-29.99797585,0],[-50.37257846,-29.99790336,0],[-50.37500844,-29.9968257,0],[-50.37604604,-29.99634695,0],[-50.37736593,-29.99573659,0],[-50.37866294,-29.99453495,0],[-50.3822297,-29.99222894,0],[-50.3864831,-29.9881491,0],[-50.38934795,-29.98528805,0],[-50.39209072,-29.98315562,0],[-50.39625257,-29.97890983,0],[-50.3997354,-29.9756635,0],[-50.40107437,-29.97457058,0],[-50.40252396,-29.97323543,0],[-50.40444276,-29.97129183,0],[-50.40963076,-29.96544195,0],[-50.41524219,-29.95910951,0],[-50.41984654,-29.95396536,0],[-50.42296316,-29.95061794,0],[-50.42801383,-29.94536316,0],[-50.4309092,-29.94269667,0],[-50.43420892,-29.9398032,0],[-50.4364329,-29.93748194,0],[-50.43892772,-29.93565087,0],[-50.44213208,-29.93329718,0],[-50.44312391,-29.93274786,0],[-50.44911303,-29.93125438,0],[-50.45782585,-29.92765516,0],[-50.46446728,-29.9247655,0],[-50.47062424,-29.92220771,0],[-50.47345857,-29.92100607,0],[-50.47841008,-29.91934855,0],[-50.48223243,-29.91751939,0],[-50.48671091,-29.91510084,0],[-50.48926677,-29.91393925,0],[-50.49043027,-29.91374089,0],[-50.4910864,-29.91400791,0],[-50.49207441,-29.91368175,0],[-50.4922804,-29.91293407,0],[-50.49244825,-29.91227984,0],[-50.49345152,-29.91206812,0],[-50.49493545,-29.91207384,0],[-50.50319051,-29.90873594,0],[-50.50558615,-29.90762394,0],[-50.50776436,-29.90683238,0],[-50.50994257,-29.90641275,0],[-50.51144175,-29.9063479,0],[-50.51377255,-29.90623345,0],[-50.51913224,-29.90462934,0],[-50.52219928,-29.90472088,0],[-50.52679984,-29.90375765,0],[-50.53218623,-29.90266853,0],[-50.53701949,-29.90166524,0],[-50.54346256,-29.90024615,0],[-50.551401,-29.89886328,0],[-50.56459232,-29.89636269,0],[-50.56614491,-29.89606132,0],[-50.56932639,-29.89551771,0],[-50.57293131,-29.89503705,0],[-50.57679944,-29.89380107,0],[-50.57866865,-29.89327463,0],[-50.57993133,-29.89309152,0],[-50.5828267,-29.89254791,0],[-50.58516132,-29.89212447,0],[-50.58876242,-29.89146069,0],[-50.59215752,-29.89079502,0],[-50.60012267,-29.88938163,0],[-50.60315156,-29.88890288,0],[-50.60769871,-29.88806934,0],[-50.61410745,-29.88696687,0],[-50.62018431,-29.88575568,0],[-50.62542955,-29.88460361,0],[-50.63104864,-29.88357553,0],[-50.63589335,-29.8826905,0],[-50.64078382,-29.88181309,0],[-50.64501435,-29.88100627,0],[-50.65638223,-29.87889478,0],[-50.66455338,-29.87738794,0],[-50.67151906,-29.87605467,0],[-50.67824824,-29.87483203,0],[-50.68338286,-29.87381539,0],[-50.68562973,-29.87339195,0],[-50.69007007,-29.87287885,0],[-50.69417853,-29.87230091,0],[-50.69884013,-29.87161806,0],[-50.71050556,-29.87009213,0],[-50.71565544,-29.86957522,0],[-50.71728051,-29.86928148,0],[-50.71816935,-29.86901063,0],[-50.7192718,-29.86882943,0],[-50.72117153,-29.86848609,0],[-50.74050838,-29.86574324,0],[-50.74986209,-29.86424021,0],[-50.7556948,-29.8634391,0],[-50.75826211,-29.86333037,0],[-50.77155262,-29.86225266,0],[-50.77236516,-29.86235375,0],[-50.78053632,-29.86404173,0],[-50.78379029,-29.86482182,0],[-50.7983473,-29.86555038,0],[-50.80879203,-29.86615878,0],[-50.81581113,-29.8665345,0],[-50.81889724,-29.86676719,0],[-50.81967927,-29.86698272,0],[-50.82022859,-29.86716582,0],[-50.82075121,-29.86723448,0],[-50.82158663,-29.8671887,0],[-50.83992023,-29.86946029,0],[-50.8449366,-29.87011831,0],[-50.85378678,-29.8711883,0],[-50.85535844,-29.87131227,0],[-50.8651089,-29.87338553,0],[-50.87036179,-29.87459477,0],[-50.87144517,-29.87461384,0],[-50.8785978,-29.87613969,0],[-50.89055317,-29.87877561,0],[-50.90231016,-29.8780336,0],[-50.9180421,-29.87715425,0],[-50.92251677,-29.87694252,0],[-50.92455765,-29.87683761,0],[-50.92952442,-29.87641415,0],[-50.94440949,-29.87521819,0],[-50.94796481,-29.87486913,0],[-50.95071523,-29.87464214,0],[-50.95194739,-29.87457538,0],[-50.95317573,-29.87459826,0],[-50.95411797,-29.87439417,0],[-50.95532342,-29.8743255,0],[-50.95770763,-29.87416718,0],[-50.95925259,-29.87402985,0],[-50.96836598,-29.87355297,0],[-50.97244392,-29.87318865,0],[-50.97380578,-29.87314287,0],[-50.97432839,-29.87311998,0],[-50.9746679,-29.87300744,0],[-50.97508752,-29.87298455,0],[-50.97794094,-29.87300743,0],[-50.98113768,-29.87280333,0],[-50.98325867,-29.87271177,0],[-50.98443742,-29.87252866,0],[-50.98608538,-29.87241612,0],[-50.99223091,-29.87182481,0],[-50.99605708,-29.87152725,0],[-50.9990936,-29.87125449,0],[-51.00464403,-29.87111714,0],[-51.01533672,-29.87100265,0],[-51.0172746,-29.87091109,0],[-51.02013183,-29.87127539,0],[-51.02079559,-29.87131353,0],[-51.02634221,-29.87142032,0],[-51.02712804,-29.87154239,0],[-51.03008827,-29.87159197,0],[-51.03370845,-29.87163964,0],[-51.03669157,-29.87160529,0],[-51.03963273,-29.87176359,0],[-51.04235644,-29.87193334,0],[-51.05467039,-29.87202866,0],[-51.06106387,-29.8722022,0],[-51.06368078,-29.87226895,0],[-51.06844919,-29.87247302,0],[-51.07221814,-29.87251687,0],[-51.07308408,-29.87246918,0],[-51.07418273,-29.87235474,0],[-51.07551025,-29.87228798,0],[-51.08109501,-29.87251111,0],[-51.09237517,-29.87270753,0],[-51.0953354,-29.87298027,0],[-51.09721987,-29.87304702,0],[-51.09963078,-29.87286199,0],[-51.10104223,-29.87270177,0],[-51.10272507,-29.8726487,0],[-51.10394524,-29.87261021,0],[-51.10533547,-29.87269579,0],[-51.10648585,-29.8727666,0],[-51.10991529,-29.87278757,0],[-51.11394746,-29.8728524,0],[-51.11774311,-29.87295729,0],[-51.12139381,-29.87313848,0],[-51.12478892,-29.87320331,0],[-51.13546779,-29.87319677,0],[-51.14002494,-29.87319372,0],[-51.14319117,-29.87316891,0],[-51.1460217,-29.87323375,0],[-51.14748274,-29.87316126,0]]},"geometry_name":"geom","properties":{"id_dutovias":469,"Nome_Duto":"OSCAN 22","Data_Construcao":null,"Data_Operacao":null,"Origem":"DT/TA/RS","Destino":"REFAP REPSOL SA","Municipio_Origem":"OSORIO","Municipio_Destino":"CANOAS","Extensao":"98,1","Diametro_Pol_M":"22","Diametro_Pol_X":"22","Categoria":"Dutos Instalados","Classificacao":"Oleoduto","Tipo_Uso":"TRANSFERÊNCIA","Tipo_Material":"RÍGIDO TERRESTRE","Etapa":null,"Operador":"DT/REGIONAL SUL","Tracado":"BR E&P","dt_ini":"2013-01-01Z","dt_fim":"2029-10-30Z"}},{"type":"Feature","id":"vw_dutovias.fid-5c8cc48d_196d0758c6a_8bf","geometry":{"type":"LineString","coordinates":[[-51.15107886,-29.87553664,0],[-51.38032251,-29.89701359,0]]},"geometry_name":"geom","properties":{"id_dutovias":1029,"Nome_Duto":"Uruguaiana-Porto Alegre (Trecho 3) - traçado aproximado","Data_Construcao":null,"Data_Operacao":"2000","Origem":"REFAP","Destino":"POLO PETROQUÍMICO DE TRINFO (RS)","Municipio_Origem":"CANOAS","Municipio_Destino":"TRIUNFO","Extensao":"25","Diametro_Pol_M":"24","Diametro_Pol_X":"24","Categoria":"Dutos Instalados","Classificacao":"Gasoduto","Tipo_Uso":"TRANSPORTE","Tipo_Material":"RÍGIDO TERRESTRE","Etapa":null,"Operador":"TSB","Tracado":"Aproximação","dt_ini":"2013-01-01Z","dt_fim":"2029-10-30Z"}},{"type":"Feature","id":"vw_dutovias.fid-5c8cc48d_196d0758c6a_8c0","geometry":{"type":"LineString","coordinates":[[-57.24385929,-29.7965218,0],[-57.19024864,-29.81299061,0],[-57.18271514,-29.81894736,0],[-57.17868557,-29.81877218,0],[-57.14785068,-29.82683141,0],[-57.14434671,-29.82665622,0],[-57.10194866,-29.82455403,0],[-57.08793278,-29.8238533,0],[-57.08250161,-29.82175095,0],[-57.08110001,-29.81982378,0],[-57.04956426,-29.81509358,0],[-57.03379638,-29.81369207,0],[-57.00979419,-29.81421776,0],[-57.00085906,-29.81299142,0]]},"geometry_name":"geom","properties":{"id_dutovias":1030,"Nome_Duto":"Uruguaiana-Porto Alegre (Trecho 1)","Data_Construcao":null,"Data_Operacao":"2000","Origem":"MARGEM ESQUERDA DO RIO URUGUAI","Destino":"RAMAL PARA TÉRMICA DE URUGUAIANA","Municipio_Origem":"URUGUAIANA","Municipio_Destino":"URUGUAIANA","Extensao":"25","Diametro_Pol_M":"24","Diametro_Pol_X":"24","Categoria":"Dutos Instalados","Classificacao":"Gasoduto","Tipo_Uso":"TRANSPORTE","Tipo_Material":"RÍGIDO TERRESTRE","Etapa":null,"Operador":"TSB","Tracado":"Decreto de 18 de janeiro de 2000","dt_ini":"2013-01-01Z","dt_fim":"2029-10-30Z"}}],"totalFeatures":6,"numberMatched":6,"numberReturned":6,"timeStamp":"2025-05-14T20:24:13.771Z","crs":{"type":"name","properties":{"name":"urn:ogc:def:crs:EPSG::4674"}}}