{"type":"FeatureCollection","features":[{"type":"Feature","properties":{"nome":"OceanTec - Parque Científico e Tecnológico da FURG","imagem":"../img/parques/pq_oceantec.png","area de atuacao":"Agronegócio, Automação e Eletroeletrônica, Ciências Biológicas da Saúde, Energia e Meio Ambiente, Fármacos e Biotecnologia, Química, TI e Software","endereço":"Av.Itália","numero":"Km 8","complemento":"","bairro":"Carreiros","municipio":"Rio Grande","cep":"96203-900","ddd":53,"telefone":"3237-3009","e-mail":"oceantec@furg.br","site":"https://oceantec.furg.br/"},"geometry":{"type":"Point","coordinates":[-52.160787927572116,-32.0632710671238]}},{"type":"Feature","properties":{"nome":"Pelotas Parque Tecnológico","imagem":"../img/parques/pq_pelotas.png","area de atuacao":"Agronegócio, Ciências Biológicas da Saúde, Indústria Critativa, TI e Software","endereço":"Av. Domingos de Almeida","numero":1785,"complemento":"","bairro":"Areal","municipio":"Pelotas","cep":"96085-470","ddd":53,"telefone":"3026-6556","e-mail":"contato@pelotasparquetecnologico.com.br","site":"http://pelotasparquetecnologico.com.br/"},"geometry":{"type":"Point","coordinates":[-52.31798265697166,-31.75346145482506]}},{"type":"Feature","properties":{"nome":"Tecnopuc - Parque Científico e Tecnológico da PUC/RS","imagem":"../img/parques/pq_tecnopuc.png","area de atuacao":"Alimentos e Bebidas, Agronegócio, Automação e Eletroeletrônica, Ciências Biológicas da Saúde, Comunicação e Convergência Digital, Energia e Meio Ambiente, Fármacos e Biotecnologia, Indústria Critativa, Química, TI e Software","endereço":"Av. Ipiranga","numero":6681,"complemento":"","bairro":"Partenon","municipio":"Porto Alegre","cep":"90619-900","ddd":51,"telefone":"3320-3694","e-mail":"tecnopuc.comunicacao@pucrs.br","site":"http://pucrs.br/tecnopuc/"},"geometry":{"type":"Point","coordinates":[-51.17175020305738,-30.059555171970402]}},{"type":"Feature","properties":{"nome":"Zenit - Parque Científico e Tecnológico da UFRGS","imagem":"../img/parques/pq_zenit.png","area de atuacao":"Alimentos e Bebidas, Agronegócio, Automação e Eletroeletrônica, Ciências Biológicas da Saúde, Comunicação e Convergência Digital, Energia e Meio Ambiente, Fármacos e Biotecnologia, Metal Mecânica, Química, TI e Software","endereço":"Praça argentina","numero":"s/n","complemento":"Prédio Château (11.102)","bairro":"Centro Histórico","municipio":"Porto Alegre","cep":"90040-020","ddd":51,"telefone":"3308-4263","e-mail":"zenit@ufrgs.br","site":"https://ufrgs.br/zenit/"},"geometry":{"type":"Point","coordinates":[-51.222016182170506,-30.03216198329425]}},{"type":"Feature","properties":{"nome":"Parque Tecnológico do Prado","imagem":"../img/parques/pq_prado.png","area de atuacao":"Projetos relacionados à inteligência artificial, internet das coisas, nanotecnologia, robótica, biomedicina e energia e baterias","endereço":"Rua Ciudadela 4","numero":294,"complemento":"","bairro":"Vila Morada Gaúcha","municipio":"Gravataí","cep":"94265-081","ddd":51,"telefone":"99710-2963","e-mail":"info@pradotech.com","site":"https://casadasstartups.com/"},"geometry":{"type":"Point","coordinates":[-50.933269916640576,-29.949061639735035]}},{"type":"Feature","properties":{"nome":"Parque Canoas de Inovação","imagem":"../img/parques/pq_canoas.png","area de atuacao":"Foco na promoção do desenvolvimento dos setores tecnológicos","endereço":"Estrada Passo do Nazário","numero":"2-218","complemento":"","bairro":"Guajuviras","municipio":"Canoas","cep":"","ddd":51,"telefone":"0800-5101234","e-mail":"smde@canoas.rs.gov.br","site":"https://canoas.rs.gov.br/pci/"},"geometry":{"type":"Point","coordinates":[-51.12908726738537,-29.902153666788784]}},{"type":"Feature","properties":{"nome":"UlbraTech - Parque Tecnológico Ulbra Canoas","imagem":"../img/parques/pq_ulbratech.png","area de atuacao":"Ciências Biológicas da Saúde, Comunicação e Convergência Digital, Energia e Meio Ambiente, Indústria Critativa, TI e Software","endereço":"Av. Farroupilha","numero":8001,"complemento":"Prédio 16 - 4º andar","bairro":"São José","municipio":"Canoas","cep":"92425-900","ddd":51,"telefone":"3462-5600","e-mail":"ulbratech@ulbratech.com.br","site":"https://ulbra.br/ulbratech"},"geometry":{"type":"Point","coordinates":[-51.15869499991885,-29.887208945295328]}},{"type":"Feature","properties":{"nome":"Tecnosinos - Parque Tecnológico de São Leopoldo","imagem":"../img/parques/pq_tecnosinos.png","area de atuacao":"Alimentos e Bebidas, Automação e Eletroeletrônica, Comunicação e Convergência Digital, Energia e Meio Ambiente, Fármacos e Biotecnologia, TI e Software","endereço":"Av. Unisinos","numero":950,"complemento":"","bairro":"","municipio":"São Leopoldo","cep":"93022-750","ddd":51,"telefone":"3590-8601","e-mail":"unitec@unisinos.br","site":"https://tecnosinos.com.br/"},"geometry":{"type":"Point","coordinates":[-51.147315886428586,-29.795426674965988]}},{"type":"Feature","properties":{"nome":"PampaTec - Parque Científico e Tecnológico do Pampa","imagem":"../img/parques/pq_pampatec.png","area de atuacao":"Agronegócio, Automação e Eletroeletrônica, Energia e Meio Ambiente, TI e Software","endereço":"Av. Tiarajú","numero":1406,"complemento":"","bairro":"Ibiraputã","municipio":"Alegrete","cep":"97546-550","ddd":55,"telefone":"3421-8417","e-mail":"pampatec@unipampa.edu.br","site":"https://sites.unipampa.edu.br/pampatec/"},"geometry":{"type":"Point","coordinates":[-55.76267733984955,-29.793848182845878]}},{"type":"Feature","properties":{"nome":"Gauten Parque de Inovação e Tecnologia","imagem":"../img/parques/pq_gauten.png","area de atuacao":"Apoio ao desenvolvimento de novas tecnologias e ideias inovadoras","endereço":"BR 471, Km 130","numero":1105,"complemento":"","bairro":"Distrito Industrial","municipio":"Santa Cruz do Sul","cep":"96835-642","ddd":51,"telefone":"3690-4134","e-mail":"gauten@santacruz.rs.gov.br","site":"https://santacruz.rs.gov.br/conteudo/nova-pagina-em-desenvolvimento/"},"geometry":{"type":"Point","coordinates":[-52.42328726129155,-29.7620396659399]}},{"type":"Feature","properties":{"nome":"InovaTec - Parque de Inovação, Ciência e Tecnologia da UFSM","imagem":"../img/parques/../pq_ufsm.png","area de atuacao":"Agrotecnologia, Bioinsumos, Foodtech, Tecnologias sustentáveis","endereço":"Av. Roraima","numero":1000,"complemento":"Prédio 61H","bairro":"Camobi","municipio":"Santa Maria","cep":"97105-900","ddd":55,"telefone":"3220-9356","e-mail":"inovatec@ufsm.br","site":"https://ufsm.br/orgaos-suplementares/inovatec/"},"geometry":{"type":"Point","coordinates":[-53.712938749648,-29.72432113230045]}},{"type":"Feature","properties":{"nome":"TecnoUnisc - Parque Científico e Tecnológico Regional da UNISC","imagem":"../img/parques/pq_unisc.png","area de atuacao":"Alimentos e Bebidas, Agronegócio, Automação e Eletroeletrônica, Ciências Biológicas da Saúde, TI e Software","endereço":"Avenida Independência","numero":2293,"complemento":"Bloco 19 - sala 1910","bairro":"Universitário","municipio":"Santa Cruz do Sul","cep":"96815-900","ddd":51,"telefone":"3717-7470","e-mail":"tecnounisc@unisc.br","site":"https://unisc.br/pt/inovacao/"},"geometry":{"type":"Point","coordinates":[-52.432657511613215,-29.698726781046037]}},{"type":"Feature","properties":{"nome":"ITEC - Parque Científico e Tecnológico da UFN","imagem":"../img/parques/pq_franciscana.png","area de atuacao":"Biotecnologia, Saúde e Educação","endereço":"Rua Silva Jardim","numero":1323,"complemento":"Conjunto II Prédio 11 - sala 211","bairro":"Centro","municipio":"Santa Maria","cep":"97010-492","ddd":55,"telefone":"3220-1200 Ramal 9090","e-mail":"itec@ufn.edu.br","site":"https://site.ufn.edu.br/pagina/ambiente-de-inovacao-itec/"},"geometry":{"type":"Point","coordinates":[-53.80816263874397,-29.683065013827772]}},{"type":"Feature","properties":{"nome":"Santa Maria Tecnoparque","imagem":"../img/parques/pq_santamaria.png","area de atuacao":"Agronegócio, Automação e Eletroeletrônica, Energia e Meio Ambiente, TI e Software","endereço":"Av. Pedro César Saccol – Eixo Secundário 8","numero":555,"complemento":"","bairro":"Parque Tecnológico Industrial","municipio":"Santa Maria","cep":"97030-440","ddd":55,"telefone":"99134-8101","e-mail":"gestor@santamariatecnoparque.com.br","site":"https://santamariatecnoparque.com.br"},"geometry":{"type":"Point","coordinates":[-53.86913576963884,-29.682208882708554]}},{"type":"Feature","properties":{"nome":"Feevale Techpark","imagem":"../img/parques/pq_feevale.png","area de atuacao":"Automação e Eletroeletrônica, Ciências Biológicas da Saúde, Comunicação e Convergência Digital, Energia e Meio Ambiente, Fármacos e Biotecnologia, Indústria Critativa, TI e Software, Energias renováveis","endereço":"Avenida Edgar Hoffmeister","numero":600,"complemento":"","bairro":"Zona Industrial Norte","municipio":"Campo Bom","cep":"93700-000","ddd":51,"telefone":"3586-5800","e-mail":"techpark@feevale.br","site":"https://feevaletechpark.com.br/"},"geometry":{"type":"Point","coordinates":[-51.05038758444317,-29.65700367910643]}},{"type":"Feature","properties":{"nome":"Tecnovates - Parque Científico e Tecnológico do Vale do Taquari","imagem":"../img/parques/pq_tecnovates.png","area de atuacao":"Alimentos e Bebidas, Agronegócio, Ciências Biológicas da Saúde, Energia e Meio Ambiente","endereço":"Rua Bento Rosa","numero":4000,"complemento":"","bairro":"Carneiros","municipio":"Lajeado","cep":"95913-470","ddd":51,"telefone":"3714-7000 Ramais 5956, 5908 e 5940","e-mail":"tecnovates@univates.br","site":"https://univates.br/tecnovates/"},"geometry":{"type":"Point","coordinates":[-51.94349587901405,-29.448897500059378]},"id":15},{"type":"Feature","properties":{"nome":"TecnoUCS - Parque de Ciência, Tecnologia e Inovação da Universidade de Caxias do Sul","imagem":"../img/parques/pq_caxias.png","area de atuacao":"Agronegócio, Automação e Eletroeletrônica, Fármacos e Biotecnologia, Nanomateriais, Indústria Critativa","endereço":"Rua Francisco Getúlio Vargas","numero":1130,"complemento":"","bairro":"Petrópolis","municipio":"Caxias do Sul","cep":"95070-560","ddd":54,"telefone":"3218-2034","e-mail":"tecnoucs@ucs.br","site":"https://ucs.br/site/tecnoucs/"},"geometry":{"type":"Point","coordinates":[-51.1502340012394,-29.16265080508704]}},{"type":"Feature","properties":{"nome":"Parque Científico e Tecnológico das Missões","imagem":"../img/parques/pq_missoes.png","area de atuacao":"Agronegócio, Comunicação e Convergência Digital, Construção civil, Energia e Meio Ambiente, Fármacos e Biotecnologia, Metal Mecânica, TI e Software","endereço":"Rua Universidade das Missões","numero":464,"complemento":"","bairro":"Universitário","municipio":"Santo Ângelo","cep":"98802-470","ddd":55,"telefone":"3313-7900","e-mail":"contato@san.uri.br","site":"http://san.uri.br/tecnouri/"},"geometry":{"type":"Point","coordinates":[-54.14076961906846,-28.253320523483534]}},{"type":"Feature","properties":{"nome":"UPFparque - Parque Científico e Tecnológico da Universidade de Passo Fundo","imagem":"../img/parques/pq_passofundo.png","area de atuacao":"Alimentos e Bebidas, Agronegócio, Automação e Eletroeletrônica, Comunicação e Convergência Digital, Fármacos e Biotecnologia, Metal Mecânica, TI e Software","endereço":"BR 285","numero":"s/n","complemento":"Campus I","bairro":"São José","municipio":"Passo Fundo","cep":"99052-900","ddd":54,"telefone":"3316- 8158","e-mail":"upfparque@upf.br","site":"https://upf.br/upfparque/"},"geometry":{"type":"Point","coordinates":[-52.3894405251127,-28.22741400572653]}}]}