{"type":"FeatureCollection","features":[{"type":"Feature","properties":{"nome":"Porto do Rio Grande","tipo":"Porto Público","finalidade":"","capacidade":"50.000 t","berços":7,"calado":"9,45 m","telefone":"55 (53) 99944-1923 / 55 (53) 99936-3748 (Porto Novo)","contato":"contato@portosrs.com.br"},"geometry":{"type":"Point","coordinates":[-52.07640622592859,-32.03791831309594]}},{"type":"Feature","properties":{"nome":"Porto de Pelotas","tipo":"Porto Público","finalidade":"","capacidade":"2 armazéns para carga geral e granéis, com área total de 6.000m²","berços":5,"calado":"5,18 m","telefone":"55 (53) 3278-7272","contato":"contato@portosrs.com.br"},"geometry":{"type":"Point","coordinates":[-52.33299541708037,-31.78196016464291]}},{"type":"Feature","properties":{"nome":"Porto de Porto Alegre","tipo":"Porto Público","finalidade":"","capacidade":"151.228 t","berços":8,"calado":"5,18 m","telefone":"55 (51) 3288-9207","contato":"contato@portosrs.com.br"},"geometry":{"type":"Point","coordinates":[-51.21157966985754,-30.009284402064587]}},{"type":"Feature","properties":{"nome":"Tecon Rio Grande S.A.","tipo":"Terminal arrendado","finalidade":"Contêineres","capacidade":"25.000 TEU","berços":3,"calado":"15 m","telefone":"55 (53) 3234-3000","contato":"atendimento.tcrg@tecon.com.br"},"geometry":{"type":"Point","coordinates":[-52.106013822706615,-32.12957343131795]},"id":3},{"type":"Feature","properties":{"nome":"Terminal Graneleiro S.A. - Tergrasa","tipo":"Terminal arrendado","finalidade":"","capacidade":"356.000 t","berços":2,"calado":"14,5 m","telefone":"55 (53) 3036-8650","contato":"tergrasa@tergrasa.com.br"},"geometry":{"type":"Point","coordinates":[-52.10725749414801,-32.10599527050188]},"id":4},{"type":"Feature","properties":{"nome":"Petróleo Brasileiro S.A. - Petrobras","tipo":"Terminal arrendado","finalidade":"","capacidade":"38.000 m³","berços":3,"calado":"12,19 m","telefone":"55 (53) 3234-3201","contato":"c.maia@transpetro.com.br"},"geometry":{"type":"Point","coordinates":[-52.093417091464595,-32.07510169971499]},"id":5},{"type":"Feature","properties":{"nome":"Petróleo Brasileiro S.A. - Transpetro","tipo":"Terminal arrendado","finalidade":"","capacidade":"58.000 m³","berços":"N/A","calado":"N/A","telefone":"55 (53) 3234-3200","contato":"c.maia@transpetro.com.br"},"geometry":{"type":"Point","coordinates":[-52.09151449833916,-32.07324391264544]}},{"type":"Feature","properties":{"nome":"CMPC Pelotas","tipo":"Terminal arrendado","finalidade":"","capacidade":"12.000 m³","berços":1,"calado":"5,18 m","telefone":"55 (51) 2139-7211","contato":"http://cmpcbrasil.com.br"},"geometry":{"type":"Point","coordinates":[-52.33684997073108,-31.781569768913702]}},{"type":"Feature","properties":{"nome":"Braskem S.A","tipo":"Terminal arrendado","finalidade":"","capacidade":"35.200 m³","berços":1,"calado":"9,75 m","telefone":"55 (51) 3794-1001","contato":"eduardo.joly@braskem.com"},"geometry":{"type":"Point","coordinates":[-52.09036260123235,-32.070775469515546]},"id":8},{"type":"Feature","properties":{"nome":"Yara Brasil Fertilizantes - Rio Grande","tipo":"Terminal de uso privado (TUP)","finalidade":"Fertilizantes e adubos","capacidade":"400.000 t","berços":5,"calado":"12,2 m","telefone":"55 (53) 3293-4300","contato":"thiago.coletti@yara.com"},"geometry":{"type":"Point","coordinates":[-52.100096562289764,-32.07541880023184]},"id":9},{"type":"Feature","properties":{"nome":"Terminal Marítimo Luiz Fogliatto - Termasa - Rio Grande","tipo":"Terminal de uso privado (TUP)","finalidade":"Farelo de soja, soja, milho e trigo","capacidade":"278.000 t","berços":2,"calado":"14,5 m","telefone":"55 (53) 3036-8650","contato":"termasa@termasa.com.br"},"geometry":{"type":"Point","coordinates":[-52.10804648293563,-32.11494011869805]},"id":10},{"type":"Feature","properties":{"nome":"Terminal Bianchini - Terbian - Rio Grande","tipo":"Terminal de uso privado (TUP)","finalidade":"Arroz, farelo de soja, milho, soja, trigo, madeira e óleo vegetal","capacidade":"879.750 t","berços":3,"calado":"14,5 m","telefone":"55 (53) 2126-6000","contato":"riogrande@bianchinisa.com.br"},"geometry":{"type":"Point","coordinates":[-52.11099673016995,-32.09997458076538]},"id":11},{"type":"Feature","properties":{"nome":"Terminal Portuário Bunge Alimentos - Rio Grande","tipo":"Terminal de uso privado (TUP)","finalidade":"Derivados de trigo e de soja, azeites, arroz","capacidade":"160.000 t","berços":2,"calado":"12,80 m","telefone":"55 (53) 3234-3600","contato":"terminal.riogrande@bunge.com"},"geometry":{"type":"Point","coordinates":[-52.10862200520816,-32.0965630930247]},"id":12},{"type":"Feature","properties":{"nome":"Tecon Santa Clara - Triunfo","tipo":"Terminal de uso privado (TUP)","finalidade":"Contêineres","capacidade":"1.800 TEU","berços":1,"calado":"5,2 m","telefone":"55 (51) 3998-1031","contato":"www.wilsonsons.com.br"},"geometry":{"type":"Point","coordinates":[-51.37545334240565,-29.900427021278414]}},{"type":"Feature","properties":{"nome":"Braskem - Triunfo","tipo":"Terminal de uso privado (TUP)","finalidade":"Gás líquido e gasoso","capacidade":"408.000 t","berços":3,"calado":"5,2 m","telefone":"N/A","contato":"http://www.braskem.com.br/unidades-bras-kem"},"geometry":{"type":"Point","coordinates":[-51.37335718970143,-29.901927165793726]}},{"type":"Feature","properties":{"nome":"Terminal Aquaviário de Osório - Transpetro","tipo":"Terminal de uso privado (TUP)","finalidade":"Derivados de petróleo","capacidade":"676.645 m³","berços":2,"calado":"18-19 m (Boia Mn 601) e 22-23m (Boia Mn 602)","telefone":"55 (51) 3684-9500","contato":"www.transpetro.com.br"},"geometry":{"type":"Point","coordinates":[-50.1917457104084,-29.987477970565322]},"id":15},{"type":"Feature","properties":{"nome":"Terminal Logístico de Pelotas - Sagres","tipo":"Terminal de uso privado (TUP)","finalidade":"Multicargas","capacidade":"90.000 t","berços":1,"calado":"5,18 m","telefone":"55 (53) 3228-0246","contato":"sagres@sagresrg.com.br"},"geometry":{"type":"Point","coordinates":[-52.34291995944107,-31.78145893656291]},"id":16},{"type":"Feature","properties":{"nome":"CMPC Guaíba","tipo":"Terminal de uso privado (TUP)","finalidade":"Celulose","capacidade":"44.500 t","berços":2,"calado":"5 m","telefone":"55 (51) 2139-7477","contato":"https://www.cmpcbrasil.com.br/"},"geometry":{"type":"Point","coordinates":[-51.31030487239912,-30.13561618432645]}},{"type":"Feature","properties":{"nome":"Terminal Privado Copelmi - Charqueadas","tipo":"Terminal de uso privado (TUP)","finalidade":"Carvão mineral e trigo","capacidade":"10.000 t","berços":1,"calado":"2,5 m","telefone":"55 (51) 99656-7123 e (51) 99656-7121","contato":"cassio@copelmi.com.br"},"geometry":{"type":"Point","coordinates":[-51.620717659555645,-29.94905741480931]}},{"type":"Feature","properties":{"nome":"Yara Fertilizantes - Porto Alegre","tipo":"Terminal de uso privado (TUP)","finalidade":"Fertilizantes e adubos","capacidade":"55.000 t","berços":2,"calado":"4,5 m","telefone":"55 (51) 3230-1300","contato":"thiago.coletti@yara.com"},"geometry":{"type":"Point","coordinates":[-51.17712798881398,-29.96898256843226]}},{"type":"Feature","properties":{"nome":"Yara Fertilizantes - Canoas","tipo":"Terminal de uso privado (TUP)","finalidade":"Fertilizantes e adubos","capacidade":"30.000 t","berços":1,"calado":"4,5 m","telefone":"55 (51) 3462-9400","contato":"thiago.coletti@yara.com"},"geometry":{"type":"Point","coordinates":[-51.199088072285704,-29.968326927657504]}},{"type":"Feature","properties":{"nome":"Camera Agroalimentos - Estrela","tipo":"Terminal de uso privado (TUP)","finalidade":"Soja, milho, trigo, arroz","capacidade":"N/A","berços":1,"calado":"2,5 m","telefone":"55 (55) 3511-5836","contato":"junior.almeida@camera.ind.br"},"geometry":{"type":"Point","coordinates":[-51.96847929346982,-29.480028921804394]}},{"type":"Feature","properties":{"nome":"Supergasbras - Canoas","tipo":"Terminal de uso privado (TUP)","finalidade":"GLP","capacidade":"1.455 m³","berços":1,"calado":"5,18 m","telefone":"55 (51) 3462-0172","contato":"ehbraga@supergasbras.com.br"},"geometry":{"type":"Point","coordinates":[-51.20251171725167,-29.967272419581082]}},{"type":"Feature","properties":{"nome":"Terminal de Gás do Sul - Tergasul - Canoas","tipo":"Terminal de uso privado (TUP)","finalidade":"GLP","capacidade":"N/A","berços":2,"calado":"5,18 m","telefone":"55 (51) 3272-9611","contato":"ricardo.dias@copaenergia.com.br"},"geometry":{"type":"Point","coordinates":[-51.20266054393004,-29.96618288535009]}},{"type":"Feature","properties":{"nome":"Bianchini - Canoas","tipo":"Terminal de uso privado (TUP)","finalidade":"Grãos e granelíquido","capacidade":"415.000 t","berços":1,"calado":"4,20 m","telefone":"55 (51) 3778-8000","contato":"arlindo@bianchinisa.com.br"},"geometry":{"type":"Point","coordinates":[-51.237505436252896,-29.914179219131206]}},{"type":"Feature","properties":{"nome":"Oleoplan - Canoas","tipo":"Terminal de uso privado (TUP)","finalidade":"Soja, farelo de soja e trigo","capacidade":"53.000t/h","berços":2,"calado":"4,5 m","telefone":"55 (51) 3329-5555","contato":"contato@oleoplan.com.br"},"geometry":{"type":"Point","coordinates":[-51.18288468300373,-29.96737508417452]}},{"type":"Feature","properties":{"nome":"Terminal Aquaviário de Niterói - Canoas","tipo":"Terminal de uso privado (TUP)","finalidade":"Derivados de petróleo","capacidade":"53.000 m³","berços":2,"calado":"4,5 m","telefone":"55 (47) 3247-3016","contato":"rodrigoreck@transpetro.com.br"},"geometry":{"type":"Point","coordinates":[-51.177187387023224,-29.965993948133466]}}]}