{
"type": "FeatureCollection",
"crs": { "type": "name", "properties": { "name": "urn:ogc:def:crs:OGC:1.3:CRS84" } },
"features": [
{ "type": "Feature", "properties": { "organizacao": "Frigorífico Borrússia", "nome_projeto": "Expansão de Fábrica - Borrússia", "cidade": "Osório", "investimento_estimado": null, "acompanhado_invest": "Não", "gerencia_responsavel": "Gerência Indústria e Serviços", "responsavel_projeto": "Marcelo Adriano da Silva" }, "geometry": { "type": "Point", "coordinates": [ -50.266713, -29.888089 ] } },
{ "type": "Feature", "properties": { "organizacao": "Buffalo Beer", "nome_projeto": "Buffalo Beer", "cidade": "Seberi", "investimento_estimado": "10000000", "acompanhado_invest": "Sim", "gerencia_responsavel": "Gerência Indústria e Serviços", "responsavel_projeto": "Rafael Kunst Bohnen" }, "geometry": { "type": "Point", "coordinates": [ -53.402634, -27.482861 ] } },
{ "type": "Feature", "properties": { "organizacao": "Upper Group", "nome_projeto": "Incorporação planta Jinhua Brasil", "cidade": "Taquari", "investimento_estimado": "4500000", "acompanhado_invest": "Sim", "gerencia_responsavel": "Gerência Indústria e Serviços", "responsavel_projeto": "Rafael Kunst Bohnen" }, "geometry": { "type": "Point", "coordinates": [ -51.865346, -29.79433 ] } },
{ "type": "Feature", "properties": { "organizacao": "HYVA", "nome_projeto": "HYVA - Transferência de Unidade", "cidade": "Caxias do Sul", "investimento_estimado": "25000000", "acompanhado_invest": "Sim", "gerencia_responsavel": "Gerência Indústria e Serviços", "responsavel_projeto": "Carina de Almeida Konzen" }, "geometry": { "type": "Point", "coordinates": [ -51.179161, -29.162905 ] } },
{ "type": "Feature", "properties": { "organizacao": "Begreen", "nome_projeto": "Projeto Begreen", "cidade": "Passo Fundo", "investimento_estimado": "5000000", "acompanhado_invest": "Sim", "gerencia_responsavel": "Gerência Energia e Infraestrutura", "responsavel_projeto": "Marcelo de Mello Kanter" }, "geometry": { "type": "Point", "coordinates": [ -52.409112, -28.257564 ] } },
{ "type": "Feature", "properties": { "organizacao": "Tecnova", "nome_projeto": "Projeto Tecnova", "cidade": "Dom Pedrito", "investimento_estimado": null, "acompanhado_invest": "Sim", "gerencia_responsavel": "Gerência Energia e Infraestrutura", "responsavel_projeto": "Bernardo Pietrobelli" }, "geometry": { "type": "Point", "coordinates": [ -54.66936, -30.97559 ] } },
{ "type": "Feature", "properties": { "organizacao": "Tellescom Semicondutores LTDA", "nome_projeto": "Tellescom - Fábrica de Encapsulamento e Testes de Semicondutores", "cidade": "Cachoeirinha", "investimento_estimado": "850000000", "acompanhado_invest": "Sim", "gerencia_responsavel": "Gerência Indústria e Serviços", "responsavel_projeto": "Carina de Almeida Konzen" }, "geometry": { "type": "Point", "coordinates": [ -51.101606, -29.947222 ] } },
{ "type": "Feature", "properties": { "organizacao": "Chocolates Lugano", "nome_projeto": "Lugano", "cidade": "Gramado", "investimento_estimado": null, "acompanhado_invest": "Sim", "gerencia_responsavel": "Gerência Serviços ao Investidor e Exportador", "responsavel_projeto": "Luciana Proença" }, "geometry": { "type": "Point", "coordinates": [ -50.876164, -29.373351 ] } },
{ "type": "Feature", "properties": { "organizacao": "American Nutrients do Brasil Industria e Comercio Ltda", "nome_projeto": "American Nutrients", "cidade": "Teutônia", "investimento_estimado": null, "acompanhado_invest": "Sim", "gerencia_responsavel": "Gerência Serviços ao Investidor e Exportador", "responsavel_projeto": "Luciana Proença" }, "geometry": { "type": "Point", "coordinates": [ -51.804375, -29.448205 ] } },
{ "type": "Feature", "properties": { "organizacao": "iWEb - Desen. de Sistemas de Meios de Pgto.", "nome_projeto": "My Phone, My Money", "cidade": "Porto Alegre", "investimento_estimado": null, "acompanhado_invest": "Sim", "gerencia_responsavel": "Gerência Serviços ao Investidor e Exportador", "responsavel_projeto": "Maria Paula Merlotti" }, "geometry": { "type": "Point", "coordinates": [ -51.206533, -30.031771 ] } },
{ "type": "Feature", "properties": { "organizacao": "Club Med", "nome_projeto": "Club Med Gramado", "cidade": "Gramado", "investimento_estimado": "1000000000", "acompanhado_invest": "Sim", "gerencia_responsavel": "Nível Diretoria", "responsavel_projeto": "Fabrício Forest" }, "geometry": { "type": "Point", "coordinates": [ -50.876164, -29.373351 ] } },
{ "type": "Feature", "properties": { "organizacao": "Sutherland Global", "nome_projeto": "Sutherland no RS ", "cidade": "Porto Alegre", "investimento_estimado": "30000000", "acompanhado_invest": "Sim", "gerencia_responsavel": "Gerência Serviços ao Investidor e Exportador", "responsavel_projeto": "Felipe de Macedo Teixeira" }, "geometry": { "type": "Point", "coordinates": [ -51.206533, -30.031771 ] } },
{ "type": "Feature", "properties": { "organizacao": "Bioosoluções", "nome_projeto": "Projeto Bioosoluções", "cidade": "Passo Fundo", "investimento_estimado": "200000000", "acompanhado_invest": "Sim", "gerencia_responsavel": "Gerência Energia e Infraestrutura", "responsavel_projeto": "Bernardo Pietrobelli" }, "geometry": { "type": "Point", "coordinates": [ -52.409112, -28.257564 ] } },
{ "type": "Feature", "properties": { "organizacao": "Braspell", "nome_projeto": "Projeto Braspell", "cidade": "Pinheiro Machado", "investimento_estimado": null, "acompanhado_invest": "Sim", "gerencia_responsavel": "Gerência Energia e Infraestrutura", "responsavel_projeto": "Marcelo de Mello Kanter" }, "geometry": { "type": "Point", "coordinates": [ -53.379789, -31.57944 ] } },
{ "type": "Feature", "properties": { "organizacao": "SPE Central de Tratamento Integrado Resíduo Zero", "nome_projeto": "SPE Central de Tratamento Integrado Resíduo Zero - Nova planta industrial", "cidade": "Triunfo", "investimento_estimado": null, "acompanhado_invest": "Sim", "gerencia_responsavel": "Gerência Energia e Infraestrutura", "responsavel_projeto": "Bernardo Pietrobelli" }, "geometry": { "type": "Point", "coordinates": [ -51.707471, -29.929129 ] } },
{ "type": "Feature", "properties": { "organizacao": "FZ BioEnergia", "nome_projeto": "FZ BioEnergia - Nova usina de etanol", "cidade": "Viadutos", "investimento_estimado": "800000000", "acompanhado_invest": "Não", "gerencia_responsavel": "Gerência Energia e Infraestrutura", "responsavel_projeto": "Marcelo de Mello Kanter" }, "geometry": { "type": "Point", "coordinates": [ -52.021144, -27.571566 ] } },
{ "type": "Feature", "properties": { "organizacao": "ECB Pedras Altas", "nome_projeto": "Complexo Eólico Pinheiro Machado", "cidade": "Pinheiro Machado", "investimento_estimado": null, "acompanhado_invest": "Não", "gerencia_responsavel": "Gerência Energia e Infraestrutura", "responsavel_projeto": "Marcelo de Mello Kanter" }, "geometry": { "type": "Point", "coordinates": [ -53.379789, -31.57944 ] } },
{ "type": "Feature", "properties": { "organizacao": "CB Bioenergia", "nome_projeto": "Projeto CB Bioenergia", "cidade": "Santiago", "investimento_estimado": "75000000", "acompanhado_invest": "Sim", "gerencia_responsavel": "Gerência Energia e Infraestrutura", "responsavel_projeto": "Marcelo de Mello Kanter" }, "geometry": { "type": "Point", "coordinates": [ -54.866624, -29.189675 ] } },
{ "type": "Feature", "properties": { "organizacao": "Viadutos Biorrefinaria", "nome_projeto": "VIadutos Biorrefianria - Usina de etanol", "cidade": "Viadutos", "investimento_estimado": "650000000", "acompanhado_invest": "Não", "gerencia_responsavel": "Gerência Energia e Infraestrutura", "responsavel_projeto": "Marcelo de Mello Kanter" }, "geometry": { "type": "Point", "coordinates": [ -52.021144, -27.571566 ] } },
{ "type": "Feature", "properties": { "organizacao": "Olfar", "nome_projeto": "Olfar - Modernização de planta de farelo em Erechim", "cidade": "Erechim", "investimento_estimado": "262000000", "acompanhado_invest": "Não", "gerencia_responsavel": "Gerência Energia e Infraestrutura", "responsavel_projeto": "Marcelo de Mello Kanter" }, "geometry": { "type": "Point", "coordinates": [ -52.26969, -27.63638 ] } },
{ "type": "Feature", "properties": { "organizacao": "Arpoador Energia", "nome_projeto": "Projeto Arpoador Energia", "cidade": "Charqueadas", "investimento_estimado": "1500000000", "acompanhado_invest": "Sim", "gerencia_responsavel": "Gerência Energia e Infraestrutura", "responsavel_projeto": "Marcelo de Mello Kanter" }, "geometry": { "type": "Point", "coordinates": [ -51.628872, -29.962478 ] } },
{ "type": "Feature", "properties": { "organizacao": "Be8", "nome_projeto": "Projeto Be8", "cidade": "Passo Fundo", "investimento_estimado": "856000000", "acompanhado_invest": "Não", "gerencia_responsavel": "Gerência Energia e Infraestrutura", "responsavel_projeto": "Marcelo de Mello Kanter" }, "geometry": { "type": "Point", "coordinates": [ -52.409112, -28.257564 ] } },
{ "type": "Feature", "properties": { "organizacao": "CRVR Biotérmica", "nome_projeto": "Projeto CRVR Biotérmica", "cidade": "São Leopoldo", "investimento_estimado": "340000000", "acompanhado_invest": "Sim", "gerencia_responsavel": "Gerência Energia e Infraestrutura", "responsavel_projeto": "Lucila Oliveira Pellegrini" }, "geometry": { "type": "Point", "coordinates": [ -51.149773, -29.754494 ] } },
{ "type": "Feature", "properties": { "organizacao": "Larix (Shenzhen) Technology Co., LTD", "nome_projeto": "LARIX", "cidade": "Guaíba", "investimento_estimado": "35000000", "acompanhado_invest": "Sim", "gerencia_responsavel": "Gerência Serviços ao Investidor e Exportador", "responsavel_projeto": "Maria Paula Merlotti" }, "geometry": { "type": "Point", "coordinates": [ -51.323314, -30.108592 ] } },
{ "type": "Feature", "properties": { "organizacao": "Fundição Ciron", "nome_projeto": "Fundição Ciron - Nova Unidade", "cidade": "Alvorada", "investimento_estimado": "200000000", "acompanhado_invest": "Não", "gerencia_responsavel": "Gerência Indústria e Serviços", "responsavel_projeto": "Marcelo Adriano da Silva" }, "geometry": { "type": "Point", "coordinates": [ -51.080857, -29.9914 ] } },
{ "type": "Feature", "properties": { "organizacao": "Stageviews", "nome_projeto": "Stageviews - Implementação de complexo de produção cultural", "cidade": "Gravataí", "investimento_estimado": null, "acompanhado_invest": "Sim", "gerencia_responsavel": "Gerência Indústria e Serviços", "responsavel_projeto": "Carina de Almeida Konzen" }, "geometry": { "type": "Point", "coordinates": [ -50.986891, -29.941319 ] } },
{ "type": "Feature", "properties": { "organizacao": "Aeromot", "nome_projeto": "Aeromot - Hub de inovação aeronáutico.", "cidade": "Guaíba", "investimento_estimado": "300000000", "acompanhado_invest": "Não", "gerencia_responsavel": "Gerência Indústria e Serviços", "responsavel_projeto": "Marcelo Adriano da Silva" }, "geometry": { "type": "Point", "coordinates": [ -51.323314, -30.108592 ] } },
{ "type": "Feature", "properties": { "organizacao": "Arlanxeo", "nome_projeto": "Arlanxeo - Linha de Produção Polibutadieno", "cidade": "Triunfo", "investimento_estimado": null, "acompanhado_invest": "Não", "gerencia_responsavel": "Gerência Indústria e Serviços", "responsavel_projeto": "Marcelo Adriano da Silva" }, "geometry": { "type": "Point", "coordinates": [ -51.707471, -29.929129 ] } },
{ "type": "Feature", "properties": { "organizacao": "Bacco Wine Heaven", "nome_projeto": "Bacco Wine Garden", "cidade": "Garibaldi", "investimento_estimado": null, "acompanhado_invest": "Não", "gerencia_responsavel": "Gerência Indústria e Serviços", "responsavel_projeto": "Marcelo Adriano da Silva" }, "geometry": { "type": "Point", "coordinates": [ -51.535179, -29.258979 ] } },
{ "type": "Feature", "properties": { "organizacao": "Boulevard Convention", "nome_projeto": "Boulevard Convention", "cidade": "Garibaldi", "investimento_estimado": null, "acompanhado_invest": "Não", "gerencia_responsavel": "Gerência Indústria e Serviços", "responsavel_projeto": "Carina de Almeida Konzen" }, "geometry": { "type": "Point", "coordinates": [ -51.535179, -29.258979 ] } },
{ "type": "Feature", "properties": { "organizacao": "Braskem", "nome_projeto": "Braskem - Ampliação da planta de eteno verde", "cidade": "Triunfo", "investimento_estimado": null, "acompanhado_invest": "Não", "gerencia_responsavel": "Gerência Indústria e Serviços", "responsavel_projeto": "Marcelo Adriano da Silva" }, "geometry": { "type": "Point", "coordinates": [ -51.707471, -29.929129 ] } },
{ "type": "Feature", "properties": { "organizacao": "TK Elevator", "nome_projeto": "TK Elevator - Novo centro de pesquisa mundial", "cidade": "Guaíba", "investimento_estimado": "116000000", "acompanhado_invest": "Não", "gerencia_responsavel": "Gerência Indústria e Serviços", "responsavel_projeto": "Rafael Kunst Bohnen" }, "geometry": { "type": "Point", "coordinates": [ -51.323314, -30.108592 ] } },
{ "type": "Feature", "properties": { "organizacao": "CEITEC", "nome_projeto": "Projeto CEITEC", "cidade": "Porto Alegre", "investimento_estimado": "220000000", "acompanhado_invest": "Não", "gerencia_responsavel": "Gerência Indústria e Serviços", "responsavel_projeto": "Carina de Almeida Konzen" }, "geometry": { "type": "Point", "coordinates": [ -51.206533, -30.031771 ] } },
{ "type": "Feature", "properties": { "organizacao": "Chocoland Hotel", "nome_projeto": "Novo hotel Chocoland Gramado", "cidade": "Porto Alegre", "investimento_estimado": "50000000", "acompanhado_invest": "Não", "gerencia_responsavel": "Gerência Indústria e Serviços", "responsavel_projeto": "Marcelo Adriano da Silva" }, "geometry": { "type": "Point", "coordinates": [ -51.206533, -30.031771 ] } },
{ "type": "Feature", "properties": { "organizacao": "Stihl", "nome_projeto": "Stihl - Expansão logística", "cidade": "São Leopoldo", "investimento_estimado": "85000000", "acompanhado_invest": "Não", "gerencia_responsavel": "Gerência Indústria e Serviços", "responsavel_projeto": "Marcelo Adriano da Silva" }, "geometry": { "type": "Point", "coordinates": [ -51.149773, -29.754494 ] } },
{ "type": "Feature", "properties": { "organizacao": "Elea Digital", "nome_projeto": "Elea Digital - Novo data center", "cidade": "Porto Alegre", "investimento_estimado": "200000000", "acompanhado_invest": "Não", "gerencia_responsavel": "Gerência Indústria e Serviços", "responsavel_projeto": "Carina de Almeida Konzen" }, "geometry": { "type": "Point", "coordinates": [ -51.206533, -30.031771 ] } },
{ "type": "Feature", "properties": { "organizacao": "Ensilica", "nome_projeto": "Expansão industrial Ensílica", "cidade": "Porto Alegre", "investimento_estimado": null, "acompanhado_invest": "Não", "gerencia_responsavel": "Gerência Indústria e Serviços", "responsavel_projeto": "Carina de Almeida Konzen" }, "geometry": { "type": "Point", "coordinates": [ -51.206533, -30.031771 ] } },
{ "type": "Feature", "properties": { "organizacao": "Rede SIM", "nome_projeto": "Rede SIM - Nova central de distribuição de combustíveis ", "cidade": "Santa Maria", "investimento_estimado": "50000000", "acompanhado_invest": "Não", "gerencia_responsavel": "Gerência Indústria e Serviços", "responsavel_projeto": "Marcelo Adriano da Silva" }, "geometry": { "type": "Point", "coordinates": [ -53.814946, -29.686817 ] } },
{ "type": "Feature", "properties": { "organizacao": "Gramado Aquarium", "nome_projeto": "Gramado Aquarium", "cidade": "Gramado", "investimento_estimado": "100000000", "acompanhado_invest": "Não", "gerencia_responsavel": "Gerência Indústria e Serviços", "responsavel_projeto": "Marcelo Adriano da Silva" }, "geometry": { "type": "Point", "coordinates": [ -50.876164, -29.373351 ] } },
{ "type": "Feature", "properties": { "organizacao": "Hard Rock Hotel", "nome_projeto": "Construção de Hard Rock Hotel em Gramado", "cidade": "Gramado", "investimento_estimado": null, "acompanhado_invest": "Não", "gerencia_responsavel": "Gerência Indústria e Serviços", "responsavel_projeto": "Rafael Kunst Bohnen" }, "geometry": { "type": "Point", "coordinates": [ -50.876164, -29.373351 ] } },
{ "type": "Feature", "properties": { "organizacao": "HT Micron", "nome_projeto": "HT Micron-Ampliação da capacidade produtiva", "cidade": "São Leopoldo", "investimento_estimado": "100000000", "acompanhado_invest": "Não", "gerencia_responsavel": "Gerência Indústria e Serviços", "responsavel_projeto": "Carina de Almeida Konzen" }, "geometry": { "type": "Point", "coordinates": [ -51.149773, -29.754494 ] } },
{ "type": "Feature", "properties": { "organizacao": "Kempinski Laje de Pedra", "nome_projeto": "Revitalização do hotel Laje de Pedra", "cidade": "Canela", "investimento_estimado": null, "acompanhado_invest": "Não", "gerencia_responsavel": "Gerência Indústria e Serviços", "responsavel_projeto": "Marcelo Adriano da Silva" }, "geometry": { "type": "Point", "coordinates": [ -50.811921, -29.355993 ] } },
{ "type": "Feature", "properties": { "organizacao": "Rede Plaza", "nome_projeto": "Rede Plaza - Novos Hoteis em Bento Gonçalves e Gramado", "cidade": "Garibaldi", "investimento_estimado": "145000000", "acompanhado_invest": "Não", "gerencia_responsavel": "Gerência Indústria e Serviços", "responsavel_projeto": "Marcelo Adriano da Silva" }, "geometry": { "type": "Point", "coordinates": [ -51.535179, -29.258979 ] } },
{ "type": "Feature", "properties": { "organizacao": "Randoncorp", "nome_projeto": "Randoncorp - Expansão produtiva", "cidade": "Caxias do Sul", "investimento_estimado": "125000000", "acompanhado_invest": "Não", "gerencia_responsavel": "Gerência Indústria e Serviços", "responsavel_projeto": "Marcelo Adriano da Silva" }, "geometry": { "type": "Point", "coordinates": [ -51.179161, -29.162905 ] } },
{ "type": "Feature", "properties": { "organizacao": "Marcopolo", "nome_projeto": "Marcopolo - Nova fábrica em Farroupilha", "cidade": "Farroupilha", "investimento_estimado": "86000000", "acompanhado_invest": "Não", "gerencia_responsavel": "Gerência Indústria e Serviços", "responsavel_projeto": "Marcelo Adriano da Silva" }, "geometry": { "type": "Point", "coordinates": [ -51.341853, -29.222689 ] } },
{ "type": "Feature", "properties": { "organizacao": "Laghetto", "nome_projeto": "Laghetto - Resorts em Canela e São Francisco de Paula", "cidade": "São Francisco de Paula", "investimento_estimado": "1240000000", "acompanhado_invest": "Não", "gerencia_responsavel": "Gerência Indústria e Serviços", "responsavel_projeto": "Marcelo Adriano da Silva" }, "geometry": { "type": "Point", "coordinates": [ -50.582796, -29.440366 ] } },
{ "type": "Feature", "properties": { "organizacao": "Hotel Everest", "nome_projeto": "Hotel Everest - Revitalização", "cidade": "Porto Alegre", "investimento_estimado": "85000000", "acompanhado_invest": "Não", "gerencia_responsavel": "Gerência Indústria e Serviços", "responsavel_projeto": "Rafael Kunst Bohnen" }, "geometry": { "type": "Point", "coordinates": [ -51.206533, -30.031771 ] } },
{ "type": "Feature", "properties": { "organizacao": "Bier Moreira Eventos Esportivos", "nome_projeto": "Bier Moreira Eventos Esportivos (Roubadinhas) - Renovação da Praça Central de Atlântida", "cidade": "Xangri-lá", "investimento_estimado": "50000000", "acompanhado_invest": "Não", "gerencia_responsavel": "Gerência Indústria e Serviços", "responsavel_projeto": "Marcelo Adriano da Silva" }, "geometry": { "type": "Point", "coordinates": [ -50.051932, -29.806493 ] } },
{ "type": "Feature", "properties": { "organizacao": "Refinaria Alberto Pasqualini (Refap)", "nome_projeto": "Refap - Parada técnica", "cidade": "Canoas", "investimento_estimado": "720000000", "acompanhado_invest": "Não", "gerencia_responsavel": "Gerência Indústria e Serviços", "responsavel_projeto": "Marcelo Adriano da Silva" }, "geometry": { "type": "Point", "coordinates": [ -51.185681, -29.912758 ] } },
{ "type": "Feature", "properties": { "organizacao": "JOHN DEERE BRASIL LTDA", "nome_projeto": "JOhn Deere - Expansão Industrial", "cidade": "Montenegro", "investimento_estimado": "181764431.54", "acompanhado_invest": "Não", "gerencia_responsavel": "Gerência Agronegócio", "responsavel_projeto": "Fabson Vogel" }, "geometry": { "type": "Point", "coordinates": [ -51.467903, -29.682414 ] } },
{ "type": "Feature", "properties": { "organizacao": "CMPC", "nome_projeto": "CMPC - Nova planta industrial", "cidade": "Barra do Ribeiro", "investimento_estimado": null, "acompanhado_invest": "Não", "gerencia_responsavel": "Gerência Agronegócio", "responsavel_projeto": "Fabson Vogel" }, "geometry": { "type": "Point", "coordinates": [ -51.301358, -30.293884 ] } },
{ "type": "Feature", "properties": { "organizacao": "Camil Alimentos", "nome_projeto": "Camil Alimentos - Expansão da fábrica no RS", "cidade": "Itaqui", "investimento_estimado": "450000000", "acompanhado_invest": "Não", "gerencia_responsavel": "Gerência Agronegócio", "responsavel_projeto": "Fabson Vogel" }, "geometry": { "type": "Point", "coordinates": [ -56.551478, -29.131051 ] } },
{ "type": "Feature", "properties": { "organizacao": "Mahindra", "nome_projeto": "Mahindra - Nova Fábrica", "cidade": "Dois Irmãos", "investimento_estimado": "400000000", "acompanhado_invest": "Não", "gerencia_responsavel": "Gerência Agronegócio", "responsavel_projeto": "Fabson Vogel" }, "geometry": { "type": "Point", "coordinates": [ -51.089776, -29.58356 ] } },
{ "type": "Feature", "properties": { "organizacao": "Grupo Fuga", "nome_projeto": "Fuga - Nova unidade de processamento de grãos", "cidade": "Camargo", "investimento_estimado": "350000000", "acompanhado_invest": "Não", "gerencia_responsavel": "Gerência Agronegócio", "responsavel_projeto": "Fernando de Castro Custodio" }, "geometry": { "type": "Point", "coordinates": [ -52.200263, -28.587979 ] } },
{ "type": "Feature", "properties": { "organizacao": "Tanac", "nome_projeto": "Tanac - Ampliar produção", "cidade": "Rio Grande", "investimento_estimado": "300000000", "acompanhado_invest": "Não", "gerencia_responsavel": "Gerência Agronegócio", "responsavel_projeto": "Henrique Romão Marcondes" }, "geometry": { "type": "Point", "coordinates": [ -52.10705, -32.034875 ] } },
{ "type": "Feature", "properties": { "organizacao": "Adama Brasil S/A", "nome_projeto": "Adama - Nova planta em Taquari ", "cidade": "Taquari", "investimento_estimado": "300000000", "acompanhado_invest": "Não", "gerencia_responsavel": "Gerência Agronegócio", "responsavel_projeto": "Henrique Romão Marcondes" }, "geometry": { "type": "Point", "coordinates": [ -51.865346, -29.79433 ] } },
{ "type": "Feature", "properties": { "organizacao": "JSL S.A.", "nome_projeto": "JSL - Investimentos em Equipamentos ", "cidade": "Guaíba", "investimento_estimado": "190000000", "acompanhado_invest": "Não", "gerencia_responsavel": "Gerência Agronegócio", "responsavel_projeto": "Fabson Vogel" }, "geometry": { "type": "Point", "coordinates": [ -51.323314, -30.108592 ] } },
{ "type": "Feature", "properties": { "organizacao": "COTRIJAL COOPERATIVA AGROPECUÁRIA E INDUSTRIAL", "nome_projeto": "Cotrijal - Usina fotovoltaicas", "cidade": "Não-me-toque", "investimento_estimado": "170000000", "acompanhado_invest": "Não", "gerencia_responsavel": "Gerência Agronegócio", "responsavel_projeto": "Henrique Romão Marcondes" }, "geometry": { "type": "Point", "coordinates": [ -52.818156, -28.454776 ] } },
{ "type": "Feature", "properties": { "organizacao": "COTRIBÁ COOPERATIVA AGRICOLA MISTA GENERAL OSORIO LTDA", "nome_projeto": "Cotribá - Triplicar Capacidade Produtiva - Rações", "cidade": "Ibirubá", "investimento_estimado": "170000000", "acompanhado_invest": "Não", "gerencia_responsavel": "Gerência Agronegócio", "responsavel_projeto": "Fernando de Castro Custodio" }, "geometry": { "type": "Point", "coordinates": [ -53.096124, -28.630161 ] } },
{ "type": "Feature", "properties": { "organizacao": "Agco do Brasil Soluções Agrícolas Ltda", "nome_projeto": "AGCO - Expanção Fabríca de Ibirubá", "cidade": "Ibirubá", "investimento_estimado": null, "acompanhado_invest": "Não", "gerencia_responsavel": "Gerência Agronegócio", "responsavel_projeto": "Fernando de Castro Custodio" }, "geometry": { "type": "Point", "coordinates": [ -53.096124, -28.630161 ] } },
{ "type": "Feature", "properties": { "organizacao": "Aguia Fertilizantes Ltda", "nome_projeto": "ÁGUIA FERTILIZANTES", "cidade": "Lavras do Sul", "investimento_estimado": "160000000", "acompanhado_invest": "Não", "gerencia_responsavel": "Gerência Agronegócio", "responsavel_projeto": "Fabson Vogel" }, "geometry": { "type": "Point", "coordinates": [ -53.893077, -30.807056 ] } },
{ "type": "Feature", "properties": { "organizacao": "Yara Brasil Fertilizantes S/A", "nome_projeto": "Yara - Manutenções nas novas operações", "cidade": "Rio Grande", "investimento_estimado": "150000000", "acompanhado_invest": "Não", "gerencia_responsavel": "Gerência Agronegócio", "responsavel_projeto": "Fernando de Castro Custodio" }, "geometry": { "type": "Point", "coordinates": [ -52.10705, -32.034875 ] } },
{ "type": "Feature", "properties": { "organizacao": "CMPC", "nome_projeto": "CMPC-Aumento da capacidade produtiva de celulose em Guaíba em 18%.", "cidade": "Guaíba", "investimento_estimado": "729100000", "acompanhado_invest": "Não", "gerencia_responsavel": "Gerência Agronegócio", "responsavel_projeto": "Fabson Vogel" }, "geometry": { "type": "Point", "coordinates": [ -51.323314, -30.108592 ] } },
{ "type": "Feature", "properties": { "organizacao": "Sociedade de Bebidas Panizzon Ltda", "nome_projeto": "Bebidas Panizzon Expansão Industrial", "cidade": "Flores da Cunha", "investimento_estimado": "118827633.27", "acompanhado_invest": "Não", "gerencia_responsavel": "Gerência Agronegócio", "responsavel_projeto": "Fernando de Castro Custodio" }, "geometry": { "type": "Point", "coordinates": [ -51.187457, -29.026147 ] } },
{ "type": "Feature", "properties": { "organizacao": "UNIFERTIL - UNIVERSAL DE FERTILIZANTES LTDA", "nome_projeto": "Unifertil Expansão industrial", "cidade": "Porto Alegre", "investimento_estimado": null, "acompanhado_invest": "Não", "gerencia_responsavel": "Gerência Agronegócio", "responsavel_projeto": "Fabrício Forest" }, "geometry": { "type": "Point", "coordinates": [ -51.206533, -30.031771 ] } },
{ "type": "Feature", "properties": { "organizacao": "STARA S.A. - INDUSTRIA DE IMPLEMENTOS AGRICOLAS", "nome_projeto": "Stara Ampliação da Fabríca", "cidade": "Santa Rosa", "investimento_estimado": "100000000", "acompanhado_invest": "Não", "gerencia_responsavel": "Gerência Agronegócio", "responsavel_projeto": "Fernando de Castro Custodio" }, "geometry": { "type": "Point", "coordinates": [ -54.479629, -27.8702 ] } },
{ "type": "Feature", "properties": { "organizacao": "VACCARO INDUSTRIA DE DERIVADOS VEGETAIS LTDA", "nome_projeto": "Vaccaro Nova planta industrial", "cidade": "Erechim", "investimento_estimado": null, "acompanhado_invest": "Não", "gerencia_responsavel": "Gerência Agronegócio", "responsavel_projeto": "Fernando de Castro Custodio" }, "geometry": { "type": "Point", "coordinates": [ -52.26969, -27.63638 ] } },
{ "type": "Feature", "properties": { "organizacao": "TONDO S/A.", "nome_projeto": "Tondo Expansão industrial", "cidade": "Caxias do Sul", "investimento_estimado": "91814153", "acompanhado_invest": "Não", "gerencia_responsavel": "Gerência Agronegócio", "responsavel_projeto": "Henrique Romão Marcondes" }, "geometry": { "type": "Point", "coordinates": [ -51.179161, -29.162905 ] } },
{ "type": "Feature", "properties": { "organizacao": "COOP AGRICOLA AGUA SANTA LTDA (COASA)", "nome_projeto": "Aumento da Capacidade Produtiva da Coasa", "cidade": "São José do Ouro", "investimento_estimado": null, "acompanhado_invest": "Não", "gerencia_responsavel": "Gerência Agronegócio", "responsavel_projeto": "Fernando de Castro Custodio" }, "geometry": { "type": "Point", "coordinates": [ -51.59662, -27.770679 ] } },
{ "type": "Feature", "properties": { "organizacao": "Alibem Alimentos", "nome_projeto": "Alibem Alimentos - Adaptar nova fabrica à sua produção", "cidade": "Estação", "investimento_estimado": "75010000", "acompanhado_invest": "Não", "gerencia_responsavel": "Gerência Agronegócio", "responsavel_projeto": "Fernando de Castro Custodio" }, "geometry": { "type": "Point", "coordinates": [ -52.263536, -27.913468 ] } },
{ "type": "Feature", "properties": { "organizacao": "Kepler Weber Industrial S/A", "nome_projeto": "Kepler Weber - Nova linha de pintura a pó.", "cidade": "Panambi", "investimento_estimado": "70000000", "acompanhado_invest": "Não", "gerencia_responsavel": "Gerência Agronegócio", "responsavel_projeto": "Henrique Romão Marcondes" }, "geometry": { "type": "Point", "coordinates": [ -53.502261, -28.283328 ] } },
{ "type": "Feature", "properties": { "organizacao": "Cooperativa Vinícola Aurora", "nome_projeto": "Aurora - Expansão industrial", "cidade": "Bento Gonçalves", "investimento_estimado": "68338000", "acompanhado_invest": "Não", "gerencia_responsavel": "Gerência Agronegócio", "responsavel_projeto": "Henrique Romão Marcondes" }, "geometry": { "type": "Point", "coordinates": [ -51.516476, -29.166212 ] } },
{ "type": "Feature", "properties": { "organizacao": "WHEY DO BRASIL ALIMENTOS S/A", "nome_projeto": " Fábrica Whey do Brasil", "cidade": "Palmeira das Missões", "investimento_estimado": null, "acompanhado_invest": "Não", "gerencia_responsavel": "Gerência Agronegócio", "responsavel_projeto": "Henrique Romão Marcondes" }, "geometry": { "type": "Point", "coordinates": [ -53.313378, -27.900652 ] } },
{ "type": "Feature", "properties": { "organizacao": "COOPERATIVA AGRICOLA MISTA NOVA PALMA LTDA (CAMNPAL)", "nome_projeto": "Novo engenho de arroz CAMNPAL", "cidade": "Dona Francisca", "investimento_estimado": "51500000", "acompanhado_invest": "Não", "gerencia_responsavel": "Gerência Agronegócio", "responsavel_projeto": "Henrique Romão Marcondes" }, "geometry": { "type": "Point", "coordinates": [ -53.361737, -29.619507 ] } },
{ "type": "Feature", "properties": { "organizacao": "Secretaria Municipal de Desenvolvimento Econômico e Turismo", "nome_projeto": "Desenvolvimento Econômico de Cachoeira do Sul", "cidade": "Cachoeira do Sul", "investimento_estimado": null, "acompanhado_invest": null, "gerencia_responsavel": null, "responsavel_projeto": null }, "geometry": { "type": "Point", "coordinates": [ -52.892756, -30.032988 ] } },
{ "type": "Feature", "properties": { "organizacao": "Magnopus Holdings, Inc.", "nome_projeto": "Magnopus - Operação no RS", "cidade": "Porto Alegre", "investimento_estimado": null, "acompanhado_invest": "Sim", "gerencia_responsavel": "Nível Diretoria", "responsavel_projeto": "Rafael Prikladnicki" }, "geometry": { "type": "Point", "coordinates": [ -51.206533, -30.031771 ] } },
{ "type": "Feature", "properties": { "organizacao": "XALINGO", "nome_projeto": "Relocação da Xalingo", "cidade": "Santa Cruz do Sul", "investimento_estimado": "30000000", "acompanhado_invest": "Sim", "gerencia_responsavel": "Gerência Indústria e Serviços", "responsavel_projeto": "Marcelo Adriano da Silva" }, "geometry": { "type": "Point", "coordinates": [ -52.434318, -29.722021 ] } },
{ "type": "Feature", "properties": { "organizacao": "PCPSteel", "nome_projeto": "Implantação de Unidade de Aplainamento de Aço-PCPSteel", "cidade": "Farroupilha", "investimento_estimado": "100000000", "acompanhado_invest": "Sim", "gerencia_responsavel": "Gerência Indústria e Serviços", "responsavel_projeto": "Marcelo Adriano da Silva" }, "geometry": { "type": "Point", "coordinates": [ -51.341853, -29.222689 ] } },
{ "type": "Feature", "properties": { "organizacao": "DRC Pneus", "nome_projeto": "Operação de Importação - DRC Pneus", "cidade": null, "investimento_estimado": null, "acompanhado_invest": null, "gerencia_responsavel": null, "responsavel_projeto": null }, "geometry": { "type": "Point", "coordinates": [ -51.206533, -30.031771 ] } },
{ "type": "Feature", "properties": { "organizacao": "Rotta Xavier Engenharia", "nome_projeto": "Centro de Distribuição Rotta Xavier", "cidade": null, "investimento_estimado": "6000000", "acompanhado_invest": null, "gerencia_responsavel": null, "responsavel_projeto": null }, "geometry": { "type": "Point", "coordinates": [ -51.206533, -30.031771 ] } },
{ "type": "Feature", "properties": { "organizacao": "Chipus", "nome_projeto": "Chipus - Centro P&D", "cidade": "Porto Alegre", "investimento_estimado": "250000000", "acompanhado_invest": "Sim", "gerencia_responsavel": "Nível Diretoria", "responsavel_projeto": "Rafael Prikladnicki" }, "geometry": { "type": "Point", "coordinates": [ -51.206533, -30.031771 ] } },
{ "type": "Feature", "properties": { "organizacao": "Ultragaz", "nome_projeto": "Desenvolvimento de projetos da Ultragaz no estado", "cidade": "São Leopoldo", "investimento_estimado": null, "acompanhado_invest": "Sim", "gerencia_responsavel": "Gerência Energia e Infraestrutura", "responsavel_projeto": "Marcelo de Mello Kanter" }, "geometry": { "type": "Point", "coordinates": [ -51.149773, -29.754494 ] } }
]
}
