{"type":"FeatureCollection","features":[{"type":"Feature","properties":{"id":604,"nome":"SUB ALEGRETE2                                      RS","uf":"RS","nome_empresa":"CPFL TRANSMISSAO S.A.","status":"Operação","dta_prevista":"","dta_entrada":"02/06/2000"},"geometry":{"type":"Point","coordinates":[-55.7227778059999,-29.777222201186]}},{"type":"Feature","properties":{"id":605,"nome":"SUB ATLANTIDA 2                                    RS","uf":"RS","nome_empresa":"COMPANHIA DE GERAÇÃO E TRANSMISSÃO DE ENERGIA ELÉTRICA DO SUL D","status":"Operação","dta_prevista":"30/04/2007","dta_entrada":"06/05/2007"},"geometry":{"type":"Point","coordinates":[-50.0486109999999,-29.7708330001862]}},{"type":"Feature","properties":{"id":606,"nome":"SUB BAGE2                                          RS","uf":"RS","nome_empresa":"CPFL TRANSMISSAO S.A.","status":"Operação","dta_prevista":"","dta_entrada":"02/06/2000"},"geometry":{"type":"Point","coordinates":[-54.0708333029999,-31.2880556061621]}},{"type":"Feature","properties":{"id":607,"nome":"SUB CACHOEIRINHA 3                                 RS","uf":"RS","nome_empresa":"CPFL TRANSMISSAO S.A.","status":"Operação","dta_prevista":"30/09/2024","dta_entrada":"26/11/2023"},"geometry":{"type":"Point","coordinates":[-51.1075920019999,-29.8777500021844]}},{"type":"Feature","properties":{"id":608,"nome":"SUB CRUZ ALTA 2                                    RS","uf":"RS","nome_empresa":"MEZ 4 ENERGIA S.A.","status":"Operação","dta_prevista":"21/03/2022","dta_entrada":"06/12/2022"},"geometry":{"type":"Point","coordinates":[-53.641366705,-28.6682500022051]}},{"type":"Feature","properties":{"id":609,"nome":"SUB CAMAQUA                                        RS","uf":"RS","nome_empresa":"CPFL TRANSMISSAO S.A.","status":"Operação","dta_prevista":"","dta_entrada":"02/06/2000"},"geometry":{"type":"Point","coordinates":[-51.8161111029999,-30.8275000001691]}},{"type":"Feature","properties":{"id":610,"nome":"SUB CAMAQUA 3                                      RS","uf":"RS","nome_empresa":"COMPANHIA DE GERAÇÃO E TRANSMISSÃO DE ENERGIA ELÉTRICA DO SUL D","status":"Operação","dta_prevista":"30/12/2014","dta_entrada":"07/12/2014"},"geometry":{"type":"Point","coordinates":[-51.8086380059999,-30.8094830061694]}},{"type":"Feature","properties":{"id":611,"nome":"SUB CAPIVARI DO SUL                                RS","uf":"RS","nome_empresa":"PAMPA TRANSMISSÃO DE ENERGIA S.A.","status":"Operação","dta_prevista":"22/06/2023","dta_entrada":"03/07/2023"},"geometry":{"type":"Point","coordinates":[-50.4515190049999,-30.1522250021799]}},{"type":"Feature","properties":{"id":612,"nome":"SUB CAXIAS                                         RS","uf":"RS","nome_empresa":"COMPANHIA DE GERAÇÃO E TRANSMISSÃO DE ENERGIA ELÉTRICA DO SUL D","status":"Operação","dta_prevista":"01/01/2001","dta_entrada":"20/06/2001"},"geometry":{"type":"Point","coordinates":[-51.1916666999999,-29.2666667031947]}},{"type":"Feature","properties":{"id":613,"nome":"SUB CAXIAS DO SUL 2                                RS","uf":"RS","nome_empresa":"CPFL TRANSMISSAO S.A.","status":"Operação","dta_prevista":"","dta_entrada":"02/06/2000"},"geometry":{"type":"Point","coordinates":[-51.1575000059999,-29.1413889001969]}},{"type":"Feature","properties":{"id":614,"nome":"SUB CAXIAS DO SUL 5                                RS","uf":"RS","nome_empresa":"CPFL TRANSMISSAO S.A.","status":"Operação","dta_prevista":"","dta_entrada":"02/06/2000"},"geometry":{"type":"Point","coordinates":[-51.1916666999999,-29.132500000197]}},{"type":"Feature","properties":{"id":615,"nome":"SUB CAXIAS 6                                       RS","uf":"RS","nome_empresa":"COMPANHIA DE GERAÇÃO E TRANSMISSÃO DE ENERGIA ELÉTRICA DO SUL D","status":"Operação","dta_prevista":"31/07/2012","dta_entrada":"20/08/2012"},"geometry":{"type":"Point","coordinates":[-51.1227780059999,-29.1658330041964]}},{"type":"Feature","properties":{"id":616,"nome":"SUB CAMPO BOM                                      RS","uf":"RS","nome_empresa":"CPFL TRANSMISSAO S.A.","status":"Operação","dta_prevista":"","dta_entrada":"02/06/2000"},"geometry":{"type":"Point","coordinates":[-51.0647222029999,-29.6930556001875]}},{"type":"Feature","properties":{"id":617,"nome":"SUB CERRO CHATO                                    RS","uf":"RS","nome_empresa":"TRANSMISSORA ALIANÇA DE ENERGIA ELÉTRICA S A","status":"Operação","dta_prevista":"31/07/2011","dta_entrada":"07/06/2011"},"geometry":{"type":"Point","coordinates":[-55.705452003,-30.8147510061693]}},{"type":"Feature","properties":{"id":618,"nome":"SUB CANDELARIA 2                                   RS","uf":"RS","nome_empresa":"TRANSMISSORA DE ENERGIA SUL BRASIL S.A.","status":"Operação","dta_prevista":"24/02/2020","dta_entrada":"20/05/2020"},"geometry":{"type":"Point","coordinates":[-52.8066480009999,-29.6494730041882]}},{"type":"Feature","properties":{"id":619,"nome":"SUB CHARQUEADAS                                    RS","uf":"RS","nome_empresa":"COMPANHIA DE GERAÇÃO E TRANSMISSÃO DE ENERGIA ELÉTRICA DO SUL D","status":"Operação","dta_prevista":"","dta_entrada":"02/06/2000"},"geometry":{"type":"Point","coordinates":[-51.6211111019999,-29.9519444031832]}},{"type":"Feature","properties":{"id":620,"nome":"SUB CHARQUEADAS 3                                  RS","uf":"RS","nome_empresa":"MEZ 5 ENERGIA S.A.","status":"Operação","dta_prevista":"30/09/2025","dta_entrada":"23/06/2024"},"geometry":{"type":"Point","coordinates":[-51.5970583039999,-29.9705056021829]}},{"type":"Feature","properties":{"id":621,"nome":"SUB COMPLEXO IND. AUTOMOTIVO GRAVATAI              RS","uf":"RS","nome_empresa":"CPFL TRANSMISSAO S.A.","status":"Operação","dta_prevista":"","dta_entrada":"02/06/2000"},"geometry":{"type":"Point","coordinates":[-50.9152780029999,-29.9347222001835]}},{"type":"Feature","properties":{"id":622,"nome":"SUB CIDADE  INDUSTRIAL                             RS","uf":"RS","nome_empresa":"CPFL TRANSMISSAO S.A.","status":"Operação","dta_prevista":"","dta_entrada":"02/06/2000"},"geometry":{"type":"Point","coordinates":[-51.1777778039999,-29.8913889001842]}},{"type":"Feature","properties":{"id":623,"nome":"SUB CANOAS 1 CEEE                                  RS","uf":"RS","nome_empresa":"CPFL TRANSMISSAO S.A.","status":"Operação","dta_prevista":"","dta_entrada":"02/06/2000"},"geometry":{"type":"Point","coordinates":[-51.1908332999999,-29.9472222031832]}},{"type":"Feature","properties":{"id":624,"nome":"SUB CANOAS 2 CEEE                                  RS","uf":"RS","nome_empresa":"CPFL TRANSMISSAO S.A.","status":"Operação","dta_prevista":"31/08/2002","dta_entrada":"17/08/2002"},"geometry":{"type":"Point","coordinates":[-51.1468863039999,-29.8770827051844]}},{"type":"Feature","properties":{"id":625,"nome":"SUB CANDIOTA                                       RS","uf":"RS","nome_empresa":"CENTRAIS ELETRICAS BRASILEIRAS SA ELETROBRAS","status":"Operação","dta_prevista":"30/12/2015","dta_entrada":"10/07/2015"},"geometry":{"type":"Point","coordinates":[-53.6914720009999,-31.5681440011579]}},{"type":"Feature","properties":{"id":626,"nome":"SUB CANDIOTA 2                                     RS","uf":"RS","nome_empresa":"CHIMARRÃO TRANSMISSORA DE ENERGIA S.A.","status":"Operação","dta_prevista":"30/11/2021","dta_entrada":"27/01/2022"},"geometry":{"type":"Point","coordinates":[-53.6902860029999,-31.5686390031578]}},{"type":"Feature","properties":{"id":627,"nome":"SUB CASTERTECH                                     RS","uf":"RS","nome_empresa":"CPFL TRANSMISSAO S.A.","status":"Operação","dta_prevista":"31/10/2009","dta_entrada":"30/11/2009"},"geometry":{"type":"Point","coordinates":[-51.1480830009999,-29.1464250011968]}},{"type":"Feature","properties":{"id":628,"nome":"SUB CAXIAS NORTE                                   RS","uf":"RS","nome_empresa":"INTERLIGAÇÃO ELÉTRICA EVRECY S.A.","status":"Operação","dta_prevista":"30/12/2020","dta_entrada":"31/10/2024"},"geometry":{"type":"Point","coordinates":[-51.2802780049999,-29.0591670051983]}},{"type":"Feature","properties":{"id":629,"nome":"SUB ELDORADO DO SUL                                RS","uf":"RS","nome_empresa":"CPFL TRANSMISSAO S.A.","status":"Operação","dta_prevista":"","dta_entrada":"02/06/2000"},"geometry":{"type":"Point","coordinates":[-51.3172222,-30.0141667051821]}},{"type":"Feature","properties":{"id":630,"nome":"SUB FARROUPILHA                                    RS","uf":"RS","nome_empresa":"COMPANHIA DE GERAÇÃO E TRANSMISSÃO DE ENERGIA ELÉTRICA DO SUL D","status":"Operação","dta_prevista":"","dta_entrada":"02/06/2000"},"geometry":{"type":"Point","coordinates":[-51.3238889049999,-29.2186111061955]}},{"type":"Feature","properties":{"id":631,"nome":"SUB FIBRAPLAC                                      RS","uf":"RS","nome_empresa":"CPFL TRANSMISSAO S.A.","status":"Operação","dta_prevista":"30/04/2003","dta_entrada":"18/06/2003"},"geometry":{"type":"Point","coordinates":[-50.7663889009999,-29.896944403184]}},{"type":"Feature","properties":{"id":632,"nome":"SUB GARIBALDI 1                                    RS","uf":"RS","nome_empresa":"CPFL TRANSMISSAO S.A.","status":"Operação","dta_prevista":"","dta_entrada":"02/06/2000"},"geometry":{"type":"Point","coordinates":[-51.511944406,-29.2372222021952]}},{"type":"Feature","properties":{"id":633,"nome":"SUB CONVERSORA GARABI 1                            RS","uf":"RS","nome_empresa":"SAIRA TRANSMISSORA DE ENERGIA ELETRICA S/A","status":"Operação","dta_prevista":"","dta_entrada":"02/06/2000"},"geometry":{"type":"Point","coordinates":[-55.6706510039999,-28.2557290052125]}},{"type":"Feature","properties":{"id":634,"nome":"SUB CONVERSORA GARABI 2                            RS","uf":"RS","nome_empresa":"ENEL CIEN S.A","status":"Operação","dta_prevista":"07/04/2002","dta_entrada":"01/05/2002"},"geometry":{"type":"Point","coordinates":[-55.6710250009999,-28.2539550062126]}},{"type":"Feature","properties":{"id":635,"nome":"SUB GRAVATAI                                       RS","uf":"RS","nome_empresa":"COMPANHIA DE GERAÇÃO E TRANSMISSÃO DE ENERGIA ELÉTRICA DO SUL D","status":"Operação","dta_prevista":"","dta_entrada":"16/11/1993"},"geometry":{"type":"Point","coordinates":[-51.061389007,-29.8847220021843]}},{"type":"Feature","properties":{"id":636,"nome":"SUB GRAVATAI 2                                     RS","uf":"RS","nome_empresa":"CPFL TRANSMISSAO S.A.","status":"Operação","dta_prevista":"","dta_entrada":"02/06/2000"},"geometry":{"type":"Point","coordinates":[-51.0641667019999,-29.8852780011843]}},{"type":"Feature","properties":{"id":637,"nome":"SUB GRAVATAI 3                                     RS","uf":"RS","nome_empresa":"COMPANHIA DE GERAÇÃO E TRANSMISSÃO DE ENERGIA ELÉTRICA DO SUL D","status":"Operação","dta_prevista":"25/11/2007","dta_entrada":"30/11/2007"},"geometry":{"type":"Point","coordinates":[-50.9833330069999,-29.8944440041841]}},{"type":"Feature","properties":{"id":638,"nome":"SUB GUARITA                                        RS","uf":"RS","nome_empresa":"CPFL TRANSMISSAO S.A.","status":"Operação","dta_prevista":"","dta_entrada":"02/06/2000"},"geometry":{"type":"Point","coordinates":[-53.5694444029999,-27.6119444002244]}},{"type":"Feature","properties":{"id":639,"nome":"SUB GUAIBA 2                                       RS","uf":"RS","nome_empresa":"CPFL TRANSMISSAO S.A.","status":"Operação","dta_prevista":"","dta_entrada":"02/06/2000"},"geometry":{"type":"Point","coordinates":[-51.3817370009999,-30.1298930051803]}},{"type":"Feature","properties":{"id":640,"nome":"SUB GUAIBA 3                                       RS","uf":"RS","nome_empresa":"CHIMARRÃO TRANSMISSORA DE ENERGIA S.A.","status":"Operação","dta_prevista":"30/11/2021","dta_entrada":"22/12/2021"},"geometry":{"type":"Point","coordinates":[-51.5579320039999,-30.0458580031816]}},{"type":"Feature","properties":{"id":641,"nome":"SUB IJUI 2                                         RS","uf":"RS","nome_empresa":"COMPANHIA DE GERAÇÃO E TRANSMISSÃO DE ENERGIA ELÉTRICA DO SUL D","status":"Operação","dta_prevista":"30/04/2013","dta_entrada":"14/04/2013"},"geometry":{"type":"Point","coordinates":[-53.9033330009999,-28.3648060042106]}},{"type":"Feature","properties":{"id":642,"nome":"SUB JARDIM BOTANICO                                RS","uf":"RS","nome_empresa":"TRANSMISSORA DE ENERGIA SUL BRASIL S.A.","status":"Operação","dta_prevista":"10/03/2019","dta_entrada":"17/03/2019"},"geometry":{"type":"Point","coordinates":[-51.1729140059999,-30.0433890001817]}},{"type":"Feature","properties":{"id":643,"nome":"SUB LAJEADO 2                                      RS","uf":"RS","nome_empresa":"CPFL TRANSMISSAO S.A.","status":"Operação","dta_prevista":"","dta_entrada":"02/06/2000"},"geometry":{"type":"Point","coordinates":[-51.9845030009999,-29.4655640051913]}},{"type":"Feature","properties":{"id":644,"nome":"SUB LAJEADO III                                    RS","uf":"RS","nome_empresa":"SE VINEYARDS TRANSMISSAO DE ENERGIA S.A.","status":"Operação","dta_prevista":"19/12/2019","dta_entrada":"22/12/2019"},"geometry":{"type":"Point","coordinates":[-51.9160000009999,-29.4313890041919]}},{"type":"Feature","properties":{"id":645,"nome":"SUB LAGOA DOS BARROS                               RS","uf":"RS","nome_empresa":"Ventos do Sul Energia S.A.","status":"Operação","dta_prevista":"30/06/2006","dta_entrada":"14/05/2006"},"geometry":{"type":"Point","coordinates":[-50.2965340019999,-29.961154006183]}},{"type":"Feature","properties":{"id":646,"nome":"SUB LAJEADO GRANDE                                 RS","uf":"RS","nome_empresa":"COMPANHIA DE GERAÇÃO E TRANSMISSÃO DE ENERGIA ELÉTRICA DO SUL D","status":"Operação","dta_prevista":"30/07/2003","dta_entrada":"27/09/2003"},"geometry":{"type":"Point","coordinates":[-50.5641667019999,-29.0027778001993]}},{"type":"Feature","properties":{"id":647,"nome":"SUB LIVRAMENTO 2                                   RS","uf":"RS","nome_empresa":"CPFL TRANSMISSAO S.A.","status":"Operação","dta_prevista":"","dta_entrada":"02/06/2000"},"geometry":{"type":"Point","coordinates":[-55.542222202,-30.8613889071686]}},{"type":"Feature","properties":{"id":648,"nome":"SUB LIVRAMENTO 3                                   RS","uf":"RS","nome_empresa":"SANT’ANA TRANSMISSORA DE ENERGIA ELÉTRICA S.A.","status":"Operação","dta_prevista":"22/06/2022","dta_entrada":"27/03/2022"},"geometry":{"type":"Point","coordinates":[-55.7582990009999,-30.7858780021698]}},{"type":"Feature","properties":{"id":649,"nome":"SUB LAGOA VERMELHA 2                               RS","uf":"RS","nome_empresa":"EMPRESA DE TRANSMISSÃO DO ALTO DO URUGUAI S/A","status":"Operação","dta_prevista":"10/04/2005","dta_entrada":"17/04/2005"},"geometry":{"type":"Point","coordinates":[-51.5250000059999,-28.1861111002138]}},{"type":"Feature","properties":{"id":650,"nome":"SUB MACAMBARA                                      RS","uf":"RS","nome_empresa":"CPFL TRANSMISSAO S.A.","status":"Operação","dta_prevista":"","dta_entrada":"02/06/2000"},"geometry":{"type":"Point","coordinates":[-56.0647222029999,-29.1497222031967]}},{"type":"Feature","properties":{"id":651,"nome":"SUB MACAMBARA 3                                    RS","uf":"RS","nome_empresa":"SANT’ANA TRANSMISSORA DE ENERGIA ELÉTRICA S.A.","status":"Operação","dta_prevista":"22/03/2024","dta_entrada":"30/11/2022"},"geometry":{"type":"Point","coordinates":[-56.063852005,-29.1575210021966]}},{"type":"Feature","properties":{"id":652,"nome":"SUB MONTE CLARO                                    RS","uf":"RS","nome_empresa":"COMPANHIA DE GERAÇÃO E TRANSMISSÃO DE ENERGIA ELÉTRICA DO SUL D","status":"Operação","dta_prevista":"01/10/2004","dta_entrada":"27/09/2004"},"geometry":{"type":"Point","coordinates":[-51.534166701,-29.0394444021986]}},{"type":"Feature","properties":{"id":653,"nome":"SUB MISSOES                                        RS","uf":"RS","nome_empresa":"COMPANHIA DE GERAÇÃO E TRANSMISSÃO DE ENERGIA ELÉTRICA DO SUL D","status":"Operação","dta_prevista":"","dta_entrada":"31/12/1990"},"geometry":{"type":"Point","coordinates":[-54.9325000049999,-28.3883333062102]}},{"type":"Feature","properties":{"id":654,"nome":"SUB MARMELEIRO 2                                   RS","uf":"RS","nome_empresa":"COMPANHIA DE GERAÇÃO E TRANSMISSÃO DE ENERGIA ELÉTRICA DO SUL D","status":"Operação","dta_prevista":"30/12/2014","dta_entrada":"19/12/2014"},"geometry":{"type":"Point","coordinates":[-52.9937000049999,-33.1393100021358]}},{"type":"Feature","properties":{"id":655,"nome":"SUB NOVA PETROPOLIS 2                              RS","uf":"RS","nome_empresa":"COMPANHIA DE GERAÇÃO E TRANSMISSÃO DE ENERGIA ELÉTRICA DO SUL D","status":"Operação","dta_prevista":"02/12/2012","dta_entrada":"03/11/2012"},"geometry":{"type":"Point","coordinates":[-51.0033530069999,-29.3517830001932]}},{"type":"Feature","properties":{"id":656,"nome":"SUB NOVA PRATA 2                                   RS","uf":"RS","nome_empresa":"CPFL TRANSMISSAO S.A.","status":"Operação","dta_prevista":"","dta_entrada":"02/06/2000"},"geometry":{"type":"Point","coordinates":[-51.612222202,-28.8052778022027]}},{"type":"Feature","properties":{"id":657,"nome":"SUB OSORIO 2                                       RS","uf":"RS","nome_empresa":"CPFL TRANSMISSAO S.A.","status":"Operação","dta_prevista":"","dta_entrada":"02/06/2000"},"geometry":{"type":"Point","coordinates":[-50.3155060039999,-29.8953530041841]}},{"type":"Feature","properties":{"id":658,"nome":"SUB OSORIO 3                                       RS","uf":"RS","nome_empresa":"CPFL TRANSMISSÃO DE ENERGIA SUL II LTDA.","status":"Operação","dta_prevista":"22/03/2024","dta_entrada":"11/03/2023"},"geometry":{"type":"Point","coordinates":[-50.308272004,-29.901619002184]}},{"type":"Feature","properties":{"id":659,"nome":"SUB PORTO ALEGRE 1                                 RS","uf":"RS","nome_empresa":"CPFL TRANSMISSÃO DE ENERGIA SUL II LTDA.","status":"Operação","dta_prevista":"22/03/2024","dta_entrada":"02/09/2022"},"geometry":{"type":"Point","coordinates":[-51.171056002,-30.0161810071821]}},{"type":"Feature","properties":{"id":660,"nome":"SUB PORTO ALEGRE 10                                RS","uf":"RS","nome_empresa":"CPFL TRANSMISSAO S.A.","status":"Operação","dta_prevista":"","dta_entrada":"02/06/2000"},"geometry":{"type":"Point","coordinates":[-51.196111105,-30.0458333041816]}},{"type":"Feature","properties":{"id":661,"nome":"SUB PORTO ALEGRE 13                                RS","uf":"RS","nome_empresa":"CPFL TRANSMISSAO S.A.","status":"Operação","dta_prevista":"","dta_entrada":"02/06/2000"},"geometry":{"type":"Point","coordinates":[-51.2252778039999,-30.0947222041808]}},{"type":"Feature","properties":{"id":662,"nome":"SUB PORTO ALEGRE 4                                 RS","uf":"RS","nome_empresa":"MEZ 5 ENERGIA S.A.","status":"Operação","dta_prevista":"","dta_entrada":"02/06/2000"},"geometry":{"type":"Point","coordinates":[-51.2286111039999,-30.0461111071816]}},{"type":"Feature","properties":{"id":663,"nome":"SUB PORTO ALEGRE 6                                 RS","uf":"RS","nome_empresa":"CPFL TRANSMISSAO S.A.","status":"Operação","dta_prevista":"","dta_entrada":"02/06/2000"},"geometry":{"type":"Point","coordinates":[-51.1430556029999,-30.0633333031813]}},{"type":"Feature","properties":{"id":664,"nome":"SUB PORTO ALEGRE 8                                 RS","uf":"RS","nome_empresa":"CPFL TRANSMISSAO S.A.","status":"Operação","dta_prevista":"08/06/2008","dta_entrada":"08/06/2008"},"geometry":{"type":"Point","coordinates":[-51.1405556049999,-30.0083333031822]}},{"type":"Feature","properties":{"id":665,"nome":"SUB PORTO ALEGRE 9                                 RS","uf":"RS","nome_empresa":"CPFL TRANSMISSAO S.A.","status":"Operação","dta_prevista":"","dta_entrada":"02/06/2000"},"geometry":{"type":"Point","coordinates":[-51.1958333029999,-29.9711111041829]}},{"type":"Feature","properties":{"id":666,"nome":"SUB PELOTAS 3                                      RS","uf":"RS","nome_empresa":"CPFL TRANSMISSAO S.A.","status":"Operação","dta_prevista":"","dta_entrada":"02/06/2000"},"geometry":{"type":"Point","coordinates":[-52.4069444019999,-31.7269444021555]}},{"type":"Feature","properties":{"id":667,"nome":"SUB PASSO  FUNDO                                   RS","uf":"RS","nome_empresa":"COMPANHIA DE GERAÇÃO E TRANSMISSÃO DE ENERGIA ELÉTRICA DO SUL D","status":"Operação","dta_prevista":"","dta_entrada":"21/03/1973"},"geometry":{"type":"Point","coordinates":[-52.7180560009999,-27.4830560012268]}},{"type":"Feature","properties":{"id":668,"nome":"SUB PRESIDENTE MEDICI                              RS","uf":"RS","nome_empresa":"CPFL TRANSMISSAO S.A.","status":"Operação","dta_prevista":"15/03/2005","dta_entrada":"16/03/2005"},"geometry":{"type":"Point","coordinates":[-53.6819443999999,-31.5516670051581]}},{"type":"Feature","properties":{"id":669,"nome":"SUB POVO NOVO                                      RS","uf":"RS","nome_empresa":"COMPANHIA DE GERAÇÃO E TRANSMISSÃO DE ENERGIA ELÉTRICA DO SUL D","status":"Operação","dta_prevista":"30/12/2014","dta_entrada":"09/12/2014"},"geometry":{"type":"Point","coordinates":[-52.3357120009999,-31.9281340021526]}},{"type":"Feature","properties":{"id":670,"nome":"SUB NOVA STA RITA                                  RS","uf":"RS","nome_empresa":"COMPANHIA DE GERAÇÃO E TRANSMISSÃO DE ENERGIA ELÉTRICA DO SUL D","status":"Operação","dta_prevista":"02/04/2006","dta_entrada":"03/04/2006"},"geometry":{"type":"Point","coordinates":[-51.3437787069999,-29.8232055011853]}},{"type":"Feature","properties":{"id":671,"nome":"SUB POLO PETROQUIMICO                              RS","uf":"RS","nome_empresa":"CPFL TRANSMISSAO S.A.","status":"Operação","dta_prevista":"","dta_entrada":"02/06/2000"},"geometry":{"type":"Point","coordinates":[-51.3880555999999,-29.8691667021845]}},{"type":"Feature","properties":{"id":672,"nome":"SUB QUINTA                                         RS","uf":"RS","nome_empresa":"CPFL TRANSMISSAO S.A.","status":"Operação","dta_prevista":"","dta_entrada":"02/06/2000"},"geometry":{"type":"Point","coordinates":[-52.2672222029999,-32.0752778051505]}},{"type":"Feature","properties":{"id":673,"nome":"SUB RESTINGA                                       RS","uf":"RS","nome_empresa":"TRANSMISSORA DE ENERGIA SUL BRASIL S.A.","status":"Operação","dta_prevista":"20/09/2018","dta_entrada":"06/12/2018"},"geometry":{"type":"Point","coordinates":[-51.1630280019999,-30.1249880041803]}},{"type":"Feature","properties":{"id":674,"nome":"SUB SANTO ANGELO 2                                 RS","uf":"RS","nome_empresa":"CPFL TRANSMISSAO S.A.","status":"Operação","dta_prevista":"","dta_entrada":"02/06/2000"},"geometry":{"type":"Point","coordinates":[-54.285555504,-28.3033333052117]}},{"type":"Feature","properties":{"id":675,"nome":"SUB SAO BORJA 2                                    RS","uf":"RS","nome_empresa":"CPFL TRANSMISSAO S.A.","status":"Operação","dta_prevista":"","dta_entrada":"02/06/2000"},"geometry":{"type":"Point","coordinates":[-55.9958332999999,-28.6888889002048]}},{"type":"Feature","properties":{"id":676,"nome":"SUB SCHARLAU                                       RS","uf":"RS","nome_empresa":"CPFL TRANSMISSAO S.A.","status":"Operação","dta_prevista":"","dta_entrada":"02/06/2000"},"geometry":{"type":"Point","coordinates":[-51.1513889059999,-29.719722003187]}},{"type":"Feature","properties":{"id":677,"nome":"SUB SCHARLAU 2                                     RS","uf":"RS","nome_empresa":"INTERLIGAÇÃO ELÉTRICA SUL S.A","status":"Operação","dta_prevista":"07/11/2010","dta_entrada":"16/11/2010"},"geometry":{"type":"Point","coordinates":[-51.1516670059999,-29.719722003187]}},{"type":"Feature","properties":{"id":678,"nome":"SUB SANTA CRUZ 1                                   RS","uf":"RS","nome_empresa":"CPFL TRANSMISSAO S.A.","status":"Operação","dta_prevista":"","dta_entrada":"02/06/2000"},"geometry":{"type":"Point","coordinates":[-52.5472222049999,-29.7125000061871]}},{"type":"Feature","properties":{"id":679,"nome":"SUB SANTA MARIA 3                                  RS","uf":"RS","nome_empresa":"CPFL TRANSMISSAO S.A.","status":"Operação","dta_prevista":"","dta_entrada":"02/06/2000"},"geometry":{"type":"Point","coordinates":[-53.8758333029999,-29.6811111051877]},"id":75},{"type":"Feature","properties":{"id":680,"nome":"SUB SANTA MARTA                                    RS","uf":"RS","nome_empresa":"CPFL TRANSMISSAO S.A.","status":"Operação","dta_prevista":"","dta_entrada":"02/06/2000"},"geometry":{"type":"Point","coordinates":[-52.4286111069999,-28.283333301212]}},{"type":"Feature","properties":{"id":681,"nome":"SUB SANTA ROSA 1                                   RS","uf":"RS","nome_empresa":"CPFL TRANSMISSAO S.A.","status":"Operação","dta_prevista":"","dta_entrada":"02/06/2000"},"geometry":{"type":"Point","coordinates":[-54.4569444059999,-27.8758333032195]}},{"type":"Feature","properties":{"id":682,"nome":"SUB SANTO ANGELO                                   RS","uf":"RS","nome_empresa":"COMPANHIA DE GERAÇÃO E TRANSMISSÃO DE ENERGIA ELÉTRICA DO SUL D","status":"Operação","dta_prevista":"","dta_entrada":"02/06/2000"},"geometry":{"type":"Point","coordinates":[-54.3252780059999,-28.2775000032122]}},{"type":"Feature","properties":{"id":683,"nome":"SUB SAO VICENTE SUL                                RS","uf":"RS","nome_empresa":"CPFL TRANSMISSAO S.A.","status":"Operação","dta_prevista":"","dta_entrada":"02/06/2000"},"geometry":{"type":"Point","coordinates":[-54.6958333029999,-29.6938889021874]}},{"type":"Feature","properties":{"id":684,"nome":"SUB SANTA VITORIA DO PALMAR 2                      RS","uf":"RS","nome_empresa":"COMPANHIA DE GERAÇÃO E TRANSMISSÃO DE ENERGIA ELÉTRICA DO SUL D","status":"Operação","dta_prevista":"30/12/2014","dta_entrada":"19/12/2014"},"geometry":{"type":"Point","coordinates":[-53.302226007,-33.4735200031314]}},{"type":"Feature","properties":{"id":685,"nome":"SUB TAQUARA                                        RS","uf":"RS","nome_empresa":"CPFL TRANSMISSAO S.A.","status":"Operação","dta_prevista":"","dta_entrada":"02/06/2000"},"geometry":{"type":"Point","coordinates":[-50.792222202,-29.6555556061881]}},{"type":"Feature","properties":{"id":686,"nome":"SUB TORRES 2                                       RS","uf":"RS","nome_empresa":"EDP TRANSMISSÃO LITORAL SUL S.A.","status":"Operação","dta_prevista":"06/10/2020","dta_entrada":"05/07/2022"},"geometry":{"type":"Point","coordinates":[-49.7879440039999,-29.3284970001936]}},{"type":"Feature","properties":{"id":687,"nome":"SUB TAPERA 2                                       RS","uf":"RS","nome_empresa":"CPFL TRANSMISSAO S.A.","status":"Operação","dta_prevista":"15/03/2005","dta_entrada":"23/03/2005"},"geometry":{"type":"Point","coordinates":[-52.868055604,-28.673611104205]}},{"type":"Feature","properties":{"id":688,"nome":"SUB URUGUAIANA5                                    RS","uf":"RS","nome_empresa":"CPFL TRANSMISSAO S.A.","status":"Operação","dta_prevista":"","dta_entrada":"02/06/2000"},"geometry":{"type":"Point","coordinates":[-57.0033332999999,-29.8075000051856]}},{"type":"Feature","properties":{"id":689,"nome":"SUB VENANCIO AIRES                                 RS","uf":"RS","nome_empresa":"CPFL TRANSMISSAO S.A.","status":"Operação","dta_prevista":"","dta_entrada":"02/06/2000"},"geometry":{"type":"Point","coordinates":[-52.1552778039999,-29.6336111051885]}},{"type":"Feature","properties":{"id":690,"nome":"SUB VIAMAO 3                                       RS","uf":"RS","nome_empresa":"TRANSMISSORA DE ENERGIA SUL BRASIL S.A.","status":"Operação","dta_prevista":"16/11/2016","dta_entrada":"18/12/2016"},"geometry":{"type":"Point","coordinates":[-51.0632100029999,-30.0355240031818]}},{"type":"Feature","properties":{"id":691,"nome":"SUB VINHEDOS                                       RS","uf":"RS","nome_empresa":"SE VINEYARDS TRANSMISSAO DE ENERGIA S.A.","status":"Operação","dta_prevista":"11/08/2022","dta_entrada":"27/06/2021"},"geometry":{"type":"Point","coordinates":[-51.474756002,-29.1812250021961]}},{"type":"Feature","properties":{"id":692,"nome":"SUB VILA MARIA                                     RS","uf":"RS","nome_empresa":"CPFL TRANSMISSÃO DE ENERGIA SUL II LTDA.","status":"Operação","dta_prevista":"13/05/2022","dta_entrada":"16/11/2022"},"geometry":{"type":"Point","coordinates":[-52.0949860069999,-28.5412910062074]}},{"type":"Feature","properties":{"id":702,"nome":"SUB FOZ DO CHAPECO                                 RS","uf":"RS","nome_empresa":"COMPANHIA DE GERAÇÃO E TRANSMISSÃO DE ENERGIA ELÉTRICA DO SUL D","status":"Operação","dta_prevista":"31/03/2013","dta_entrada":"14/10/2010"},"geometry":{"type":"Point","coordinates":[-53.0527780059999,-27.1400000002334]}},{"type":"Feature","properties":{"id":860,"nome":"SUB RIVERA                                         UY","uf":"UY","nome_empresa":"Administracion Nacional de Usinas Y Transmisiones Electricas","status":"Operação","dta_prevista":"","dta_entrada":"02/06/2000"},"geometry":{"type":"Point","coordinates":[-55.5575000049999,-31.0044444051664]}},{"type":"Feature","properties":{"id":878,"nome":"SUB SUB ATLANTICA                                  RS","uf":"RS","nome_empresa":"Atlantica V Parque Eólico","status":"Operação","dta_prevista":"","dta_entrada":"31/12/1990"},"geometry":{"type":"Point","coordinates":[-50.3185479999999,-30.3011480001775]}},{"type":"Feature","properties":{"id":925,"nome":"USI PCH CANASTRA                                   RS","uf":"RS","nome_empresa":"CPFL TRANSMISSAO S.A.","status":"Operação","dta_prevista":"","dta_entrada":"01/04/1956"},"geometry":{"type":"Point","coordinates":[-50.7457999999999,-29.2934000001942]}},{"type":"Feature","properties":{"id":943,"nome":"SUB IVOTI 2                                        RS","uf":"RS","nome_empresa":"RGE SUL DISTRIBUIDORA DE ENERGIA S.A.","status":"Prevista","dta_prevista":"01/01/2027","dta_entrada":""},"geometry":{"type":"Point","coordinates":[-51.1463399999999,-29.601050000189]}},{"type":"Feature","properties":{"id":944,"nome":"SUB SAO SEBASTIAO DO CAI                           RS","uf":"RS","nome_empresa":"CPFL TRANSMISSAO S.A.","status":"Operação","dta_prevista":"","dta_entrada":"31/12/1990"},"geometry":{"type":"Point","coordinates":[-51.3345799999999,-29.6046600001889]}},{"type":"Feature","properties":{"id":1043,"nome":"SUB ERECHIM 1                                      RS","uf":"RS","nome_empresa":"CPFL TRANSMISSAO S.A.","status":"Operação","dta_prevista":"","dta_entrada":"02/06/2000"},"geometry":{"type":"Point","coordinates":[-52.312500016,-27.6563892632236]}},{"type":"Feature","properties":{"id":1070,"nome":"SUB CRUZ ALTA 1                                    RS","uf":"RS","nome_empresa":"CPFL TRANSMISSAO S.A.","status":"Operação","dta_prevista":"","dta_entrada":"02/06/2000"},"geometry":{"type":"Point","coordinates":[-53.6149999099999,-28.6119443852062]}},{"type":"Feature","properties":{"id":1071,"nome":"SUB CARAZINHO                                      RS","uf":"RS","nome_empresa":"CPFL TRANSMISSAO S.A.","status":"Operação","dta_prevista":"","dta_entrada":"31/12/1990"},"geometry":{"type":"Point","coordinates":[-52.800751827,-28.2817108922121]}},{"type":"Feature","properties":{"id":1093,"nome":"SUB MASISA                                         RS","uf":"RS","nome_empresa":"RGE SUL DISTRIBUIDORA DE ENERGIA S.A.","status":"Operação","dta_prevista":"30/04/2009","dta_entrada":"12/05/2009"},"geometry":{"type":"Point","coordinates":[-57.0051176559999,-29.8055508901856]}},{"type":"Feature","properties":{"id":1236,"nome":"SUB JARDIM BOTANICO AEREA - LT PA10                RS","uf":"RS","nome_empresa":"TRANSMISSORA DE ENERGIA SUL BRASIL S.A.","status":"Operação","dta_prevista":"","dta_entrada":"17/03/2019"},"geometry":{"type":"Point","coordinates":[-51.1723298239999,-30.0425608171817]}},{"type":"Feature","properties":{"id":1237,"nome":"SUB JARDIM BOTANICO AEREA - LT GRA2                RS","uf":"RS","nome_empresa":"TRANSMISSORA DE ENERGIA SUL BRASIL S.A.","status":"Operação","dta_prevista":"","dta_entrada":"17/03/2019"},"geometry":{"type":"Point","coordinates":[-51.1743344159999,-30.0433627511816]}},{"type":"Feature","properties":{"id":1257,"nome":"SUB SÃO SEBASTIÃO DO CAÍ 2                         RS","uf":"RS","nome_empresa":"","status":"Prevista","dta_prevista":"31/01/2027","dta_entrada":""},"geometry":{"type":"Point","coordinates":[-51.335777038,-29.606736032189]}}]}