{"type":"FeatureCollection","features":[{"type":"Feature","properties":{"id":2,"modalidade":"UTE COM CVU DECLARADO, QUE NÃO IMPACTA A REDE DE OPERAÇÃO E É DESPACHADA POR ORDEM DE MÉRITO","nome":"USI UTE SAO SEPE                                   RS","uf":"RS","dta_prevista":"15/11/2018","dta_entrada":"13/03/2019","cod_tipo":"UTE","tipo":"Térmica"},"geometry":{"type":"Point","coordinates":[-53.65444416999998,-30.101559170999963]}},{"type":"Feature","properties":{"id":249,"modalidade":"USINA PERTENCENTE A CONJUNTO DE USINAS","nome":"USI USI EOLICA DOS INDIOS 2                        RS","uf":"RS","dta_prevista":"30/12/2014","dta_entrada":"16/12/2014","cod_tipo":"UEE","tipo":"Eolielétrica"},"geometry":{"type":"Point","coordinates":[-50.33331700399998,-29.99346400099995]}},{"type":"Feature","properties":{"id":250,"modalidade":"USINA PERTENCENTE A CONJUNTO DE USINAS","nome":"USI USI USI EOL. INDIOS 3                          RS","uf":"RS","dta_prevista":"30/12/2014","dta_entrada":"16/12/2014","cod_tipo":"UEE","tipo":"Eolielétrica"},"geometry":{"type":"Point","coordinates":[-50.351167000999965,-29.99444400599998]},"id":2},{"type":"Feature","properties":{"id":251,"modalidade":"USINA CUJA OPERAÇÃO IMPACTA A REDE DE OPERAÇÃO","nome":"USI DONA FRANCISCA                                 RS","uf":"RS","dta_prevista":"18/01/2001","dta_entrada":"05/02/2001","cod_tipo":"UHE","tipo":"Hidroelétrica"},"geometry":{"type":"Point","coordinates":[-53.28055560599995,-29.446944400999996]}},{"type":"Feature","properties":{"id":252,"modalidade":"USINA QUE NÃO IMPACTA A REDE DE OPERAÇÃO, MAS PARTICIPA DA PROGRAMAÇÃO DE FORMA INDIVIDUALIZADA","nome":"USI EOL CIDREIRA I                                 RS","uf":"RS","dta_prevista":"31/12/2010","dta_entrada":"21/05/2011","cod_tipo":"UEE","tipo":"Eolielétrica"},"geometry":{"type":"Point","coordinates":[-50.17388900399999,-30.075000004000003]},"id":4},{"type":"Feature","properties":{"id":253,"modalidade":"USINA CUJA OPERAÇÃO IMPACTA A REDE DE OPERAÇÃO","nome":"USI CASTRO ALVES                                   RS","uf":"RS","dta_prevista":"31/03/2008","dta_entrada":"04/03/2008","cod_tipo":"UHE","tipo":"Hidroelétrica"},"geometry":{"type":"Point","coordinates":[-51.379166699999985,-29.00833330399996]}},{"type":"Feature","properties":{"id":254,"modalidade":"USINA CUJA OPERAÇÃO IMPACTA A REDE DE OPERAÇÃO","nome":"USI FOZ DO CHAPECO                                 RS","uf":"RS","dta_prevista":"31/10/2010","dta_entrada":"21/09/2010","cod_tipo":"UHE","tipo":"Hidroelétrica"},"geometry":{"type":"Point","coordinates":[-53.04333300099995,-27.140000000999976]}},{"type":"Feature","properties":{"id":255,"modalidade":"USINA CUJA OPERAÇÃO IMPACTA A REDE DE OPERAÇÃO","nome":"USI MONTE CLARO                                    RS","uf":"RS","dta_prevista":"31/12/2004","dta_entrada":"29/12/2004","cod_tipo":"UHE","tipo":"Hidroelétrica"},"geometry":{"type":"Point","coordinates":[-51.5,-29.016666703999988]}},{"type":"Feature","properties":{"id":256,"modalidade":"USINA CUJA OPERAÇÃO IMPACTA A REDE DE OPERAÇÃO","nome":"USI UHE MONJOLINHO                                 RS","uf":"RS","dta_prevista":"31/08/2009","dta_entrada":"01/09/2009","cod_tipo":"UHE","tipo":"Hidroelétrica"},"geometry":{"type":"Point","coordinates":[-52.734722003,-27.328611002000002]}},{"type":"Feature","properties":{"id":257,"modalidade":"USINA CUJA OPERAÇÃO IMPACTA A REDE DE OPERAÇÃO","nome":"USI PASSO FUNDO                                    RS","uf":"RS","dta_prevista":"","dta_entrada":"21/03/1973","cod_tipo":"UHE","tipo":"Hidroelétrica"},"geometry":{"type":"Point","coordinates":[-52.733333007,-27.55000000499996]}},{"type":"Feature","properties":{"id":258,"modalidade":"USINA CUJA OPERAÇÃO IMPACTA A REDE DE OPERAÇÃO","nome":"USI PASSO SAO JOAO                                 RS","uf":"RS","dta_prevista":"31/03/2012","dta_entrada":"24/03/2012","cod_tipo":"UHE","tipo":"Hidroelétrica"},"geometry":{"type":"Point","coordinates":[-55.05194400299996,-28.141111002000002]}},{"type":"Feature","properties":{"id":259,"modalidade":"USINA CUJA OPERAÇÃO IMPACTA A REDE DE OPERAÇÃO","nome":"USI 14 DE JULHO                                    RS","uf":"RS","dta_prevista":"31/12/2008","dta_entrada":"25/12/2008","cod_tipo":"UHE","tipo":"Hidroelétrica"},"geometry":{"type":"Point","coordinates":[-51.666667007,-29.05000000499996]}},{"type":"Feature","properties":{"id":260,"modalidade":"USINA CUJA OPERAÇÃO IMPACTA A REDE DE OPERAÇÃO","nome":"USI ITAUBA                                         RS","uf":"RS","dta_prevista":"","dta_entrada":"01/02/1978","cod_tipo":"UHE","tipo":"Hidroelétrica"},"geometry":{"type":"Point","coordinates":[-53.23388890199999,-29.258888900999978]}},{"type":"Feature","properties":{"id":261,"modalidade":"USINA CUJA OPERAÇÃO IMPACTA A REDE DE OPERAÇÃO","nome":"USI JACUI                                          RS","uf":"RS","dta_prevista":"","dta_entrada":"01/03/1962","cod_tipo":"UHE","tipo":"Hidroelétrica"},"geometry":{"type":"Point","coordinates":[-53.227500505999956,-29.079166002999955]}},{"type":"Feature","properties":{"id":262,"modalidade":"USINA CUJA OPERAÇÃO IMPACTA A REDE DE OPERAÇÃO","nome":"USI PASSO REAL                                     RS","uf":"RS","dta_prevista":"","dta_entrada":"01/01/1973","cod_tipo":"UHE","tipo":"Hidroelétrica"},"geometry":{"type":"Point","coordinates":[-53.188888899999995,-29.01694440199998]}},{"type":"Feature","properties":{"id":263,"modalidade":"USINA CUJA OPERAÇÃO IMPACTA A REDE DE OPERAÇÃO","nome":"USI SAO JERONIMO                                   RS","uf":"RS","dta_prevista":"","dta_entrada":"01/01/1997","cod_tipo":"UTE","tipo":"Térmica"},"geometry":{"type":"Point","coordinates":[-51.76166669999998,-29.982500002999984]},"id":15},{"type":"Feature","properties":{"id":264,"modalidade":"USINA CUJA OPERAÇÃO IMPACTA A REDE DE OPERAÇÃO","nome":"USI SAO JOSE                                       RS","uf":"RS","dta_prevista":"31/03/2011","dta_entrada":"01/09/2010","cod_tipo":"UHE","tipo":"Hidroelétrica"},"geometry":{"type":"Point","coordinates":[-54.813056007,-28.174444005999987]}},{"type":"Feature","properties":{"id":265,"modalidade":"USINA CUJA OPERAÇÃO IMPACTA A REDE DE OPERAÇÃO","nome":"USI ALEGRETE                                       RS","uf":"RS","dta_prevista":"","dta_entrada":"03/09/1968","cod_tipo":"UTE","tipo":"Térmica"},"geometry":{"type":"Point","coordinates":[-55.770555600999955,-29.782777802]}},{"type":"Feature","properties":{"id":266,"modalidade":"USINA CUJA OPERAÇÃO IMPACTA A REDE DE OPERAÇÃO","nome":"USI CANOAS                                         RS","uf":"RS","dta_prevista":"31/08/2002","dta_entrada":"12/02/2003","cod_tipo":"UTE","tipo":"Térmica"},"geometry":{"type":"Point","coordinates":[-51.14694440399995,-29.876388900999984]},"id":18},{"type":"Feature","properties":{"id":267,"modalidade":"USINA CUJA OPERAÇÃO IMPACTA A REDE DE OPERAÇÃO","nome":"USI TERMELETRICA CANDIOTA III                      RS","uf":"RS","dta_prevista":"31/12/2010","dta_entrada":"01/01/2011","cod_tipo":"UTE","tipo":"Térmica"},"geometry":{"type":"Point","coordinates":[-53.666667007,-31.55000000499996]}},{"type":"Feature","properties":{"id":268,"modalidade":"USINA CUJA OPERAÇÃO IMPACTA A REDE DE OPERAÇÃO","nome":"USI UTE PAMPA SUL                                  RS","uf":"RS","dta_prevista":"01/01/2019","dta_entrada":"28/06/2019","cod_tipo":"UTE","tipo":"Térmica"},"geometry":{"type":"Point","coordinates":[-53.776900001,-31.450700000999973]},"id":20},{"type":"Feature","properties":{"id":269,"modalidade":"USINA CUJA OPERAÇÃO IMPACTA A REDE DE OPERAÇÃO","nome":"USI U.URUGUAIANA                                   RS","uf":"RS","dta_prevista":"","dta_entrada":"13/12/2000","cod_tipo":"UTE","tipo":"Térmica"},"geometry":{"type":"Point","coordinates":[-57.00055560499999,-29.763888903999998]}},{"type":"Feature","properties":{"id":271,"modalidade":"USINA CUJA OPERAÇÃO IMPACTA A REDE DE OPERAÇÃO","nome":"USI BARRA GRANDE                                   SC","uf":"SC","dta_prevista":"30/11/2005","dta_entrada":"01/11/2005","cod_tipo":"UHE","tipo":"Hidroelétrica"},"geometry":{"type":"Point","coordinates":[-51.21666700399999,-27.766667001999963]}},{"type":"Feature","properties":{"id":273,"modalidade":"USINA CUJA OPERAÇÃO IMPACTA A REDE DE OPERAÇÃO","nome":"USI ITA                                            SC","uf":"SC","dta_prevista":"","dta_entrada":"11/06/2000","cod_tipo":"UHE","tipo":"Hidroelétrica"},"geometry":{"type":"Point","coordinates":[-52.39833300599997,-27.267500005999977]}},{"type":"Feature","properties":{"id":274,"modalidade":"USINA CUJA OPERAÇÃO IMPACTA A REDE DE OPERAÇÃO","nome":"USI MACHADINHO                                     SC","uf":"SC","dta_prevista":"31/01/2002","dta_entrada":"21/01/2002","cod_tipo":"UHE","tipo":"Hidroelétrica"},"geometry":{"type":"Point","coordinates":[-51.784722201999955,-27.523611001999996]},"id":24},{"type":"Feature","properties":{"id":340,"modalidade":"USINA QUE NÃO TEM RELACIONAMENTO DIRETO COM O ONS","nome":"USI CONVERSORA MELO                                UY","uf":"UY","dta_prevista":"30/12/2015","dta_entrada":"09/06/2017","cod_tipo":"UHE","tipo":"Hidroelétrica"},"geometry":{"type":"Point","coordinates":[-54.09167600000001,-32.41667000199999]}}]}